{"type":"FeatureCollection","features":[{"type":"Feature","id":"ferry-119444673","geometry":{"type":"LineString","coordinates":[[-6.31389,62.31656],[-6.3138,62.31649],[-6.31402,62.31628],[-6.31438,62.31607],[-6.31456,62.31582],[-6.31445,62.31555],[-6.31395,62.3154],[-6.31109,62.31536],[-6.30765,62.31524],[-6.30393,62.31535],[-6.3004,62.31571],[-6.2937,62.31683],[-6.28713,62.31782],[-6.28279,62.31923],[-6.27728,62.32133],[-6.27375,62.3241],[-6.2728,62.32579],[-6.27283,62.32707],[-6.27387,62.32736],[-6.27484,62.3274],[-6.27586,62.32718]]},"properties":{"id":"ferry-119444673","name":"Kirkja - Hattarvík","bikes":true}},{"type":"Feature","id":"ferry-119444677","geometry":{"type":"LineString","coordinates":[[-6.3667,62.28335],[-6.36672,62.28344],[-6.36662,62.2835],[-6.36715,62.28712],[-6.36712,62.29065],[-6.36601,62.29796],[-6.35782,62.30473],[-6.34415,62.30958],[-6.32991,62.31304],[-6.31648,62.31576],[-6.3146,62.31621],[-6.31395,62.31646],[-6.31389,62.31656]]},"properties":{"id":"ferry-119444677","name":"Svínoy - Kirkja","bikes":true}},{"type":"Feature","id":"ferry-150332974","geometry":{"type":"LineString","coordinates":[[-6.58929,62.23027],[-6.59003,62.23011],[-6.59092,62.23032],[-6.59173,62.2307],[-6.59278,62.23155],[-6.59343,62.232],[-6.59453,62.234],[-6.59605,62.23726],[-6.5987,62.24007],[-6.60674,62.24232],[-6.61612,62.2441],[-6.62697,62.24523],[-6.64876,62.2461],[-6.65894,62.24635],[-6.66248,62.24617],[-6.66449,62.24632]]},"properties":{"id":"ferry-150332974","name":"Klaksvík - Kalsoy","bikes":true}},{"type":"Feature","id":"ferry-150332975","geometry":{"type":"LineString","coordinates":[[-7.64841,62.10194],[-7.64791,62.1018],[-7.64919,62.10093],[-7.64961,62.10029],[-7.64944,62.09976],[-7.64828,62.09906],[-7.64622,62.09872],[-7.63586,62.09567],[-7.62524,62.09233],[-7.61019,62.09058],[-7.59183,62.08914],[-7.56346,62.08796],[-7.54012,62.08756],[-7.4886,62.08719],[-7.45646,62.08719],[-7.43128,62.08585],[-7.38457,62.08085],[-7.37178,62.07933],[-7.33721,62.07686],[-7.32987,62.07477],[-7.32385,62.07238],[-7.32531,62.07102],[-7.32543,62.07097],[-7.32604,62.071]]},"properties":{"id":"ferry-150332975","name":"Sørvágur - Mykines","bikes":false,"note":"Bikes not accepted on this ferry."}},{"type":"Feature","id":"ferry-150332976","geometry":{"type":"LineString","coordinates":[[-6.80293,61.7718],[-6.8007,61.77261],[-6.78768,61.78113],[-6.77987,61.79255],[-6.77934,61.80396],[-6.78212,61.81422],[-6.78751,61.82045],[-6.7969,61.82914],[-6.80113,61.83113],[-6.80412,61.8315],[-6.80604,61.83099],[-6.80724,61.82964],[-6.80752,61.8291],[-6.8078,61.82871],[-6.80798,61.82863],[-6.80821,61.8286],[-6.80887,61.82881],[-6.80943,61.8289]]},"properties":{"id":"ferry-150332976","name":"Sandur - Skúvoy","bikes":true}},{"type":"Feature","id":"ferry-38855543","geometry":{"type":"LineString","coordinates":[[-6.3667,62.28335],[-6.36713,62.28359],[-6.36805,62.28373],[-6.36972,62.28385],[-6.37232,62.28397],[-6.38286,62.28424],[-6.38531,62.28436],[-6.38878,62.28432],[-6.39119,62.28409],[-6.39723,62.28297],[-6.40327,62.28137],[-6.40642,62.28068],[-6.40882,62.27968],[-6.41046,62.27843],[-6.41362,62.27624],[-6.41567,62.27547],[-6.41829,62.27484],[-6.42142,62.27442],[-6.42466,62.27412],[-6.4464,62.27554],[-6.46054,62.27661],[-6.4694,62.27713],[-6.47469,62.27772],[-6.47869,62.27827],[-6.48275,62.27875],[-6.48554,62.27916],[-6.48902,62.28001],[-6.49257,62.28075],[-6.49751,62.2819],[-6.50271,62.28349],[-6.51032,62.2863],[-6.51569,62.28914],[-6.5173,62.29019],[-6.51884,62.29096],[-6.52004,62.29168],[-6.52073,62.29225],[-6.52104,62.29284],[-6.52126,62.29359],[-6.52173,62.29432],[-6.52211,62.29533],[-6.52326,62.29699],[-6.52334,62.29734],[-6.52334,62.2975],[-6.52327,62.29762],[-6.52289,62.29778],[-6.52213,62.29786],[-6.52204,62.29781]]},"properties":{"id":"ferry-38855543","name":"Hvannasund - Svínoy","bikes":true}},{"type":"Feature","id":"ferry-40159014","geometry":{"type":"LineString","coordinates":[[-6.81709,61.5482],[-6.81951,61.54948],[-6.81965,61.54964],[-6.8197,61.54983],[-6.81911,61.55045],[-6.81757,61.55102],[-6.81614,61.55149],[-6.81437,61.55179],[-6.81243,61.55185],[-6.81066,61.55176],[-6.80887,61.5515],[-6.80672,61.55092],[-6.8042,61.54984],[-6.79767,61.54658],[-6.79183,61.54356],[-6.78582,61.54059],[-6.78392,61.53981],[-6.78159,61.53933],[-6.75374,61.53486],[-6.74218,61.53314],[-6.73437,61.53232],[-6.72425,61.53281],[-6.71546,61.53594],[-6.71014,61.53967],[-6.70628,61.5489],[-6.69977,61.55951],[-6.66542,61.59079],[-6.63507,61.63632],[-6.59165,61.75826],[-6.58886,61.8046],[-6.59819,61.85059],[-6.61911,61.88195],[-6.68071,61.94129],[-6.72819,61.98355],[-6.76625,61.9976],[-6.77102,62.00199],[-6.76667,62.0079]]},"properties":{"id":"ferry-40159014","name":"Suðuroy - Tórshavn","bikes":true}},{"type":"Feature","id":"ferry-447886765","geometry":{"type":"LineString","coordinates":[[9.97559,57.59589],[9.96291,57.59615],[9.9589,57.59656],[9.95662,57.59991],[6.06377,57.93089],[-0.73578,60.84971],[-0.86349,60.88464],[-0.96889,60.90418],[-6.64024,61.94229],[-6.65003,61.9452],[-6.72552,61.98478],[-6.76539,61.99799],[-6.77071,62.00202],[-6.76667,62.0079]]},"properties":{"id":"ferry-447886765","name":"Hirtshals - Tórshavn","bikes":true}},{"type":"Feature","id":"ferry-46593843","geometry":{"type":"LineString","coordinates":[[-14.00355,65.26338],[-14.0014,65.26397],[-14.00148,65.26581],[-14.00368,65.26763],[-14.00221,65.26984],[-13.98929,65.275],[-13.94946,65.2834],[-13.90844,65.28792],[-13.87513,65.29589],[-13.8317,65.30127],[-13.70261,65.30456],[-13.66107,65.30349],[-13.60168,65.29746],[-13.54348,65.28641],[-7.28513,62.51503],[-6.77214,62.27333],[-6.75271,62.25665],[-6.72943,62.23378],[-6.71552,62.22568],[-6.65042,62.20845],[-6.63095,62.20208],[-6.625,62.1972],[-6.62062,62.19173],[-6.5936,62.16257],[-6.57443,62.14381],[-6.57098,62.13323],[-6.57232,62.12733],[-6.57657,62.12261],[-6.61772,62.09251],[-6.66337,62.06168],[-6.711,62.02991],[-6.75734,61.9996],[-6.7638,61.99853],[-6.76995,62.00204],[-6.76667,62.0079]]},"properties":{"id":"ferry-46593843","name":"Tórshavn - Seyðisfjörður","bikes":true}},{"type":"Feature","id":"ferry-46694662","geometry":{"type":"LineString","coordinates":[[-6.76749,62.00846],[-6.76749,62.00629],[-6.77036,62.00203],[-6.76437,61.99806],[-6.67644,62.00738],[-6.67397,62.00755],[-6.67332,62.00721],[-6.67322,62.00696],[-6.67311,62.00683],[-6.6725,62.00671]]},"properties":{"id":"ferry-46694662","name":"Tórshavn - Nólsoy","bikes":true}},{"type":"Feature","id":"ferry-46694666","geometry":{"type":"LineString","coordinates":[[-6.8189,61.96243],[-6.81679,61.95958],[-6.82275,61.95843],[-6.87809,61.9587],[-6.88115,61.95776],[-6.88178,61.95684],[-6.88272,61.95679],[-6.88288,61.95654],[-6.88283,61.95653]]},"properties":{"id":"ferry-46694666","name":"Gamlarætt - Hestur","bikes":true}}]}