{"type":"FeatureCollection","features":[{"type":"Feature","id":"clifftop-bliss-sandoy","geometry":{"type":"MultiLineString","coordinates":[[[-6.88444,61.90363],[-6.88406,61.90373],[-6.88362,61.90375]],[[-6.88362,61.90375],[-6.88359,61.90362],[-6.88339,61.90343]],[[-6.88326,61.90334],[-6.88339,61.90343]],[[-6.88301,61.90313],[-6.88326,61.90334]],[[-6.88299,61.90311],[-6.88301,61.90313]],[[-6.88268,61.90285],[-6.88299,61.90311]],[[-6.88252,61.90272],[-6.88268,61.90285]],[[-6.88239,61.90261],[-6.88252,61.90272]],[[-6.88222,61.90249],[-6.88239,61.90261]],[[-6.8819,61.90226],[-6.88222,61.90249]],[[-6.8819,61.90226],[-6.88169,61.90235]],[[-6.88169,61.90235],[-6.88108,61.90263]],[[-6.88108,61.90263],[-6.88103,61.90266]],[[-6.88103,61.90266],[-6.88071,61.90279]],[[-6.88071,61.90279],[-6.88063,61.90274]],[[-6.88063,61.90274],[-6.8797,61.90248]],[[-6.8797,61.90248],[-6.87954,61.90245]],[[-6.87954,61.90245],[-6.87934,61.90238],[-6.87917,61.90216],[-6.87904,61.9021],[-6.87804,61.9021]],[[-6.87804,61.9021],[-6.87805,61.90176]],[[-6.87805,61.90176],[-6.87782,61.90142],[-6.87759,61.90126],[-6.87644,61.90075]],[[-6.87644,61.90075],[-6.87422,61.89986],[-6.87365,61.89956],[-6.87297,61.89906],[-6.87275,61.89883],[-6.87235,61.89823]],[[-6.87235,61.89823],[-6.87191,61.8978],[-6.87105,61.89726],[-6.8684,61.89617],[-6.86744,61.89569],[-6.86637,61.895],[-6.86567,61.89437]],[[-6.86567,61.89437],[-6.8651,61.89361],[-6.86491,61.89323],[-6.86477,61.89268]],[[-6.86477,61.89268],[-6.86473,61.89213]],[[-6.86473,61.89213],[-6.86472,61.89189],[-6.86482,61.89144],[-6.86541,61.88984]],[[-6.86541,61.88984],[-6.86586,61.88877],[-6.86656,61.88748],[-6.86672,61.88709],[-6.86678,61.88679],[-6.86678,61.88654],[-6.86666,61.88592],[-6.86623,61.88471]],[[-6.86623,61.88471],[-6.86612,61.88422],[-6.86612,61.88404],[-6.86617,61.88371],[-6.86636,61.88312],[-6.86631,61.88238],[-6.86616,61.88198],[-6.86585,61.88158],[-6.86356,61.87953],[-6.86244,61.8781],[-6.86143,61.8772],[-6.86014,61.87594],[-6.85938,61.87544],[-6.85702,61.87429]],[[-6.85702,61.87429],[-6.85443,61.87292]],[[-6.85443,61.87292],[-6.85252,61.87206],[-6.85156,61.87169]],[[-6.85156,61.87169],[-6.85037,61.87123]],[[-6.85037,61.87123],[-6.85016,61.87115]],[[-6.85016,61.87115],[-6.84876,61.87066],[-6.8467,61.8701]],[[-6.8467,61.8701],[-6.84569,61.86974],[-6.84483,61.8692]],[[-6.84483,61.8692],[-6.84445,61.86887]],[[-6.84445,61.86887],[-6.84387,61.86815],[-6.84347,61.86774]],[[-6.84347,61.86774],[-6.84287,61.86732],[-6.84226,61.86698]],[[-6.84226,61.86698],[-6.84111,61.86634],[-6.83959,61.86536]],[[-6.83959,61.86536],[-6.83895,61.86492]],[[-6.83895,61.86492],[-6.83886,61.86484]],[[-6.83886,61.86484],[-6.83828,61.86433],[-6.83738,61.86337]],[[-6.83738,61.86337],[-6.83651,61.86239]],[[-6.83651,61.86239],[-6.83617,61.862]],[[-6.83617,61.862],[-6.83577,61.86157]],[[-6.83577,61.86157],[-6.83541,61.86117]],[[-6.83541,61.86117],[-6.8351,61.86083]],[[-6.8351,61.86083],[-6.83485,61.86055]],[[-6.83485,61.86055],[-6.83461,61.86029]],[[-6.83461,61.86029],[-6.83359,61.85917]],[[-6.83359,61.85917],[-6.83343,61.85899]],[[-6.83343,61.85899],[-6.83228,61.85775]],[[-6.83228,61.85775],[-6.83165,61.85715]],[[-6.83165,61.85715],[-6.83035,61.85616],[-6.82772,61.85456],[-6.82694,61.85403],[-6.82645,61.85364],[-6.82591,61.85313]],[[-6.82591,61.85313],[-6.82508,61.85206],[-6.82457,61.85122]],[[-6.82457,61.85122],[-6.824,61.85026],[-6.8238,61.84988],[-6.82359,61.84928],[-6.82353,61.84881],[-6.82369,61.84816],[-6.82382,61.84792],[-6.82401,61.84774],[-6.82429,61.84756],[-6.82453,61.84749],[-6.82493,61.84746],[-6.82709,61.84757],[-6.82765,61.84749],[-6.82797,61.84733],[-6.82804,61.84719],[-6.82803,61.84707],[-6.82693,61.84559]],[[-6.82693,61.84559],[-6.8267,61.84521],[-6.82651,61.84467]],[[-6.82651,61.84467],[-6.82636,61.84429]],[[-6.82636,61.84429],[-6.82617,61.84395],[-6.82588,61.84356],[-6.82536,61.84304]],[[-6.82536,61.84304],[-6.82498,61.84271]],[[-6.82498,61.84271],[-6.82491,61.84265]],[[-6.82491,61.84265],[-6.82376,61.84164]],[[-6.82376,61.84164],[-6.82205,61.84049]],[[-6.82205,61.84049],[-6.82198,61.84035],[-6.82194,61.84011],[-6.82199,61.83922],[-6.82185,61.83892]],[[-6.82185,61.83892],[-6.8217,61.83873]],[[-6.8217,61.83873],[-6.82154,61.83854]],[[-6.82154,61.83854],[-6.82147,61.83846]],[[-6.82147,61.83846],[-6.82124,61.83821]],[[-6.82124,61.83821],[-6.82095,61.83786]],[[-6.82095,61.83786],[-6.82081,61.83759]],[[-6.82081,61.83759],[-6.82078,61.83752]],[[-6.82078,61.83752],[-6.82069,61.83735]],[[-6.82069,61.83735],[-6.82066,61.83727]],[[-6.82066,61.83727],[-6.82048,61.83694]],[[-6.82048,61.83694],[-6.82044,61.83687]],[[-6.82044,61.83687],[-6.82041,61.83679]],[[-6.82041,61.83679],[-6.82035,61.8366]],[[-6.82035,61.8366],[-6.82034,61.83604]],[[-6.82034,61.83604],[-6.82034,61.83602]],[[-6.82034,61.83602],[-6.82034,61.83595]],[[-6.82034,61.83595],[-6.82025,61.83573]],[[-6.82025,61.83573],[-6.82016,61.83558]],[[-6.82016,61.83558],[-6.82004,61.83538]],[[-6.82004,61.83538],[-6.82003,61.83536]],[[-6.82003,61.83536],[-6.81976,61.83489]],[[-6.81976,61.83489],[-6.81972,61.83485]],[[-6.81972,61.83485],[-6.81934,61.83453]],[[-6.81934,61.83453],[-6.81923,61.83443]],[[-6.81923,61.83443],[-6.81898,61.83423]],[[-6.81898,61.83423],[-6.81883,61.83412]],[[-6.81883,61.83412],[-6.8188,61.8341]],[[-6.8188,61.8341],[-6.81847,61.83398]],[[-6.81847,61.83398],[-6.8184,61.83396]],[[-6.8184,61.83396],[-6.81806,61.83389]],[[-6.81806,61.83389],[-6.81734,61.83377]],[[-6.81734,61.83377],[-6.81724,61.83375]],[[-6.81724,61.83375],[-6.81708,61.83372]],[[-6.81708,61.83372],[-6.81639,61.83361]],[[-6.81639,61.83361],[-6.8154,61.83345]],[[-6.8154,61.83345],[-6.81498,61.83341]],[[-6.81498,61.83341],[-6.81516,61.83371],[-6.81519,61.83388]],[[-6.81519,61.83388],[-6.81526,61.83403],[-6.81576,61.83451]],[[-6.81576,61.83451],[-6.81643,61.83512],[-6.8166,61.83518],[-6.81679,61.83515],[-6.81691,61.83498],[-6.81692,61.8348],[-6.81707,61.83476],[-6.81718,61.8348]],[[-6.81576,61.83451],[-6.81643,61.83512],[-6.8166,61.83518],[-6.81679,61.83515],[-6.81691,61.83498],[-6.81692,61.8348],[-6.81707,61.83476],[-6.81718,61.8348]],[[-6.81519,61.83388],[-6.81526,61.83403],[-6.81576,61.83451]],[[-6.81498,61.83341],[-6.81516,61.83371],[-6.81519,61.83388]],[[-6.8154,61.83345],[-6.81498,61.83341]],[[-6.81639,61.83361],[-6.8154,61.83345]],[[-6.81708,61.83372],[-6.81639,61.83361]],[[-6.81724,61.83375],[-6.81708,61.83372]],[[-6.81734,61.83377],[-6.81724,61.83375]],[[-6.81806,61.83389],[-6.81734,61.83377]],[[-6.8184,61.83396],[-6.81806,61.83389]],[[-6.81847,61.83398],[-6.8184,61.83396]],[[-6.8188,61.8341],[-6.81847,61.83398]],[[-6.81883,61.83412],[-6.8188,61.8341]],[[-6.81898,61.83423],[-6.81883,61.83412]],[[-6.81923,61.83443],[-6.81898,61.83423]],[[-6.81934,61.83453],[-6.81923,61.83443]],[[-6.81972,61.83485],[-6.81934,61.83453]],[[-6.81976,61.83489],[-6.81972,61.83485]],[[-6.82003,61.83536],[-6.81976,61.83489]],[[-6.82004,61.83538],[-6.82003,61.83536]],[[-6.82016,61.83558],[-6.82004,61.83538]],[[-6.82025,61.83573],[-6.82016,61.83558]],[[-6.82034,61.83595],[-6.82025,61.83573]],[[-6.82034,61.83602],[-6.82034,61.83595]],[[-6.82034,61.83604],[-6.82034,61.83602]],[[-6.82035,61.8366],[-6.82034,61.83604]],[[-6.82041,61.83679],[-6.82035,61.8366]],[[-6.82044,61.83687],[-6.82041,61.83679]],[[-6.82048,61.83694],[-6.82044,61.83687]],[[-6.82066,61.83727],[-6.82048,61.83694]],[[-6.82069,61.83735],[-6.82066,61.83727]],[[-6.82078,61.83752],[-6.82069,61.83735]],[[-6.82081,61.83759],[-6.82078,61.83752]],[[-6.82095,61.83786],[-6.82081,61.83759]],[[-6.82095,61.83786],[-6.82006,61.83798]],[[-6.82006,61.83798],[-6.8183,61.83811]],[[-6.8183,61.83811],[-6.81826,61.83812]],[[-6.81826,61.83812],[-6.81735,61.83822],[-6.81642,61.83808]],[[-6.81642,61.83808],[-6.81599,61.83812],[-6.81209,61.83944]],[[-6.81209,61.83944],[-6.80958,61.84025]],[[-6.80958,61.84025],[-6.80918,61.84038]],[[-6.80918,61.84038],[-6.80893,61.84041]],[[-6.80893,61.84041],[-6.80859,61.84034],[-6.80803,61.84005]],[[-6.80803,61.84005],[-6.80694,61.83951],[-6.8051,61.83888]],[[-6.8051,61.83888],[-6.80407,61.83855]],[[-6.80407,61.83855],[-6.80296,61.83822],[-6.80078,61.83744]],[[-6.80078,61.83744],[-6.79955,61.83704],[-6.79733,61.83656]],[[-6.79733,61.83656],[-6.79632,61.83633],[-6.79359,61.83596],[-6.79305,61.83585],[-6.79076,61.83526],[-6.78779,61.83441],[-6.78621,61.83419],[-6.7844,61.83383],[-6.78296,61.83341],[-6.78188,61.83292],[-6.78144,61.83278],[-6.77992,61.83246],[-6.77897,61.83241],[-6.77827,61.83225]],[[-6.77827,61.83225],[-6.77742,61.83194],[-6.7769,61.83186],[-6.77643,61.83193],[-6.7762,61.83213]],[[-6.7762,61.83213],[-6.776,61.8323],[-6.77576,61.83238],[-6.77485,61.83241]],[[-6.77485,61.83241],[-6.7741,61.83238],[-6.77212,61.83198]],[[-6.77212,61.83198],[-6.76605,61.83058]],[[-6.76605,61.83058],[-6.76129,61.82942]],[[-6.76129,61.82942],[-6.76034,61.82918]],[[-6.76034,61.82918],[-6.75688,61.82848]],[[-6.75688,61.82848],[-6.7541,61.8279],[-6.75267,61.82745],[-6.75157,61.82717],[-6.75018,61.827],[-6.74594,61.82622]],[[-6.74594,61.82622],[-6.742,61.82563],[-6.74123,61.82538],[-6.73957,61.82473],[-6.73766,61.82425]],[[-6.73766,61.82425],[-6.73749,61.82422]],[[-6.73749,61.82422],[-6.73693,61.82409]],[[-6.73693,61.82409],[-6.73433,61.82351],[-6.73378,61.82343],[-6.73156,61.82327]],[[-6.73156,61.82327],[-6.73132,61.82322]],[[-6.73132,61.82322],[-6.73007,61.82298],[-6.72939,61.82291],[-6.72871,61.82293],[-6.72726,61.82312]],[[-6.72726,61.82312],[-6.72409,61.8234],[-6.7231,61.82341],[-6.71775,61.82237],[-6.71454,61.82192],[-6.71288,61.82181],[-6.71209,61.82184],[-6.71097,61.82195],[-6.709,61.8223],[-6.70745,61.82259],[-6.70624,61.82289],[-6.70354,61.82366],[-6.70245,61.82383]],[[-6.70245,61.82383],[-6.70137,61.82398]],[[-6.70137,61.82398],[-6.70052,61.82413],[-6.69889,61.82454]],[[-6.69889,61.82454],[-6.69505,61.82569],[-6.69423,61.82585],[-6.69301,61.82584],[-6.69149,61.82552]],[[-6.69149,61.82552],[-6.6905,61.82542],[-6.68916,61.82561],[-6.68447,61.82679]],[[-6.68447,61.82679],[-6.68258,61.82734]],[[-6.68258,61.82734],[-6.6814,61.82763],[-6.67891,61.82809],[-6.67811,61.82821],[-6.67623,61.82839]],[[-6.67623,61.82839],[-6.67484,61.82849]],[[-6.67484,61.82849],[-6.67402,61.82856]],[[-6.67402,61.82856],[-6.67329,61.82861]],[[-6.67329,61.82861],[-6.67227,61.82871]],[[-6.67227,61.82871],[-6.672,61.82874]],[[-6.672,61.82874],[-6.67163,61.82879]],[[-6.67163,61.82879],[-6.6716,61.82879]],[[-6.6716,61.82879],[-6.6714,61.82882]],[[-6.6714,61.82882],[-6.67083,61.82889]],[[-6.67083,61.82889],[-6.6706,61.82891]],[[-6.6706,61.82891],[-6.67034,61.82894]],[[-6.67034,61.82894],[-6.66913,61.82917]],[[-6.66913,61.82917],[-6.66871,61.82931]],[[-6.66871,61.82931],[-6.6671,61.82998]],[[-6.6671,61.82998],[-6.6642,61.83079]]]},"properties":{"id":"clifftop-bliss-sandoy","tourSlug":"clifftop-bliss-sandoy"}},{"type":"Feature","id":"historical-kirkjubour","geometry":{"type":"MultiLineString","coordinates":[[[-6.77184,62.01014],[-6.77153,62.01019]],[[-6.77184,62.01014],[-6.77283,62.00974]],[[-6.77346,62.01027],[-6.77283,62.00974]],[[-6.77379,62.01059],[-6.77346,62.01027]],[[-6.77393,62.01071],[-6.77379,62.01059]],[[-6.77458,62.01126],[-6.77393,62.01071]],[[-6.77458,62.01126],[-6.77576,62.01095]],[[-6.77576,62.01095],[-6.77616,62.01084]],[[-6.77616,62.01084],[-6.7768,62.0105]],[[-6.7768,62.0105],[-6.77722,62.01026]],[[-6.77722,62.01026],[-6.77767,62.01008]],[[-6.77767,62.01008],[-6.7792,62.00957]],[[-6.7792,62.00957],[-6.77968,62.00942]],[[-6.77968,62.00942],[-6.78,62.00932]],[[-6.78,62.00932],[-6.78101,62.00903]],[[-6.78101,62.00903],[-6.78158,62.00887]],[[-6.78158,62.00887],[-6.78258,62.00854]],[[-6.78258,62.00854],[-6.78315,62.00834]],[[-6.78315,62.00834],[-6.78354,62.00822]],[[-6.78354,62.00822],[-6.78391,62.0081]],[[-6.78391,62.0081],[-6.7846,62.00789]],[[-6.7846,62.00789],[-6.78467,62.00787]],[[-6.78467,62.00787],[-6.78488,62.0078]],[[-6.78564,62.00742],[-6.7857,62.0075],[-6.78564,62.00755],[-6.78488,62.0078]],[[-6.78558,62.00737],[-6.78564,62.00742]],[[-6.78549,62.00729],[-6.78558,62.00737]],[[-6.78541,62.00721],[-6.78549,62.00729]],[[-6.78541,62.00721],[-6.78542,62.00717],[-6.78525,62.00698]],[[-6.78525,62.00698],[-6.78523,62.00696]],[[-6.78523,62.00696],[-6.78527,62.00691]],[[-6.78527,62.00691],[-6.78532,62.0069]],[[-6.78532,62.0069],[-6.78557,62.00684]],[[-6.78557,62.00684],[-6.78571,62.00679]],[[-6.78571,62.00679],[-6.78683,62.00661],[-6.78777,62.00639]],[[-6.78777,62.00639],[-6.78853,62.00606]],[[-6.78853,62.00606],[-6.78873,62.00598]],[[-6.78873,62.00598],[-6.78878,62.00595]],[[-6.78878,62.00595],[-6.78884,62.00595]],[[-6.78884,62.00595],[-6.78891,62.00593]],[[-6.78891,62.00593],[-6.78894,62.00588]],[[-6.78894,62.00588],[-6.78897,62.00586]],[[-6.78897,62.00586],[-6.78912,62.00579]],[[-6.78999,62.0054],[-6.78912,62.00579]],[[-6.79121,62.00489],[-6.78999,62.0054]],[[-6.79307,62.00422],[-6.79121,62.00489]],[[-6.79307,62.00422],[-6.79363,62.00404]],[[-6.79363,62.00404],[-6.79495,62.00372]],[[-6.79495,62.00372],[-6.79594,62.0035]],[[-6.79594,62.0035],[-6.79711,62.00323]],[[-6.79711,62.00323],[-6.79753,62.00314]],[[-6.79753,62.00314],[-6.79914,62.00281]],[[-6.79914,62.00281],[-6.79957,62.00272]],[[-6.79977,62.00267],[-6.79957,62.00272]],[[-6.80052,62.00243],[-6.79977,62.00267]],[[-6.80052,62.00243],[-6.79955,62.00185]],[[-6.79955,62.00185],[-6.80041,62.00158]],[[-6.80041,62.00158],[-6.80068,62.00152]],[[-6.80068,62.00152],[-6.80436,62.00071]],[[-6.80436,62.00071],[-6.80749,62.00025]],[[-6.80749,62.00025],[-6.80888,62.00006]],[[-6.80888,62.00006],[-6.80974,61.99995]],[[-6.80974,61.99995],[-6.80981,61.99993]],[[-6.80981,61.99993],[-6.81281,61.99951]],[[-6.81281,61.99951],[-6.81638,61.99902]],[[-6.81638,61.99902],[-6.81734,61.99889]],[[-6.81734,61.99889],[-6.81913,61.99874]],[[-6.81913,61.99874],[-6.82056,61.99872],[-6.82223,61.99881],[-6.82634,61.99943]],[[-6.82634,61.99943],[-6.82727,61.99956]],[[-6.82727,61.99956],[-6.82826,61.9997]],[[-6.82826,61.9997],[-6.82891,61.99978]],[[-6.82891,61.99978],[-6.83098,62.00003]],[[-6.83098,62.00003],[-6.83272,62.00024]],[[-6.83272,62.00024],[-6.83502,62.00059],[-6.83741,62.00104]],[[-6.83741,62.00104],[-6.83912,62.0014]],[[-6.83912,62.0014],[-6.84063,62.00174],[-6.84136,62.00186],[-6.84238,62.00189],[-6.84342,62.0018]],[[-6.84342,62.0018],[-6.84409,62.00166]],[[-6.84409,62.00166],[-6.8449,62.00137]],[[-6.8449,62.00137],[-6.84525,62.00118],[-6.8456,62.00091],[-6.84594,62.00044],[-6.84601,62.00016],[-6.846,61.99993],[-6.84577,61.99948]],[[-6.84577,61.99948],[-6.84513,61.99888]],[[-6.84513,61.99888],[-6.84461,61.9984],[-6.84432,61.99806],[-6.8441,61.99768],[-6.84396,61.99734],[-6.84387,61.99691],[-6.84388,61.99659],[-6.84415,61.99565]],[[-6.84415,61.99565],[-6.84545,61.99212],[-6.84574,61.99155],[-6.84616,61.99097],[-6.84666,61.99045],[-6.84812,61.98921],[-6.84838,61.98884],[-6.84853,61.98848],[-6.84856,61.98813],[-6.84849,61.98778],[-6.84833,61.98743],[-6.84812,61.98716],[-6.8478,61.98686],[-6.84742,61.98659],[-6.84651,61.98615]],[[-6.84651,61.98615],[-6.84568,61.98589],[-6.84461,61.98563]],[[-6.84461,61.98563],[-6.84323,61.98524],[-6.84173,61.98468],[-6.84061,61.98414],[-6.83914,61.98327]],[[-6.8417,61.984],[-6.84112,61.98397],[-6.84049,61.98381],[-6.84015,61.98362],[-6.83982,61.98321],[-6.83958,61.98318],[-6.83914,61.98327]],[[-6.84319,61.98379],[-6.8417,61.984]],[[-6.84394,61.98369],[-6.84319,61.98379]],[[-6.85391,61.98355],[-6.8536,61.98357],[-6.85296,61.98349],[-6.85211,61.98354],[-6.85055,61.98339],[-6.8469,61.98321],[-6.84652,61.98325],[-6.84523,61.98356],[-6.84394,61.98369]],[[-6.85493,61.98349],[-6.85426,61.98347],[-6.85391,61.98355]],[[-6.85742,61.98407],[-6.85702,61.98405],[-6.85665,61.98384],[-6.85618,61.98367],[-6.85493,61.98349]],[[-6.85739,61.98402],[-6.85742,61.98407]],[[-6.85737,61.98401],[-6.85739,61.98402]],[[-6.85649,61.98358],[-6.85737,61.98401]],[[-6.85624,61.98345],[-6.85649,61.98358]],[[-6.85624,61.98345],[-6.85628,61.98338],[-6.85623,61.98329],[-6.85643,61.98308],[-6.85647,61.98288],[-6.85636,61.98269],[-6.85613,61.98257]],[[-6.85624,61.98345],[-6.85628,61.98338],[-6.85623,61.98329],[-6.85643,61.98308],[-6.85647,61.98288],[-6.85636,61.98269],[-6.85613,61.98257]],[[-6.85624,61.98345],[-6.85649,61.98358]],[[-6.85649,61.98358],[-6.85737,61.98401]],[[-6.85737,61.98401],[-6.85739,61.98402]],[[-6.85739,61.98402],[-6.85742,61.98407]],[[-6.85742,61.98407],[-6.85702,61.98405],[-6.85665,61.98384],[-6.85618,61.98367],[-6.85493,61.98349]],[[-6.85493,61.98349],[-6.85426,61.98347],[-6.85391,61.98355]],[[-6.85305,61.98325],[-6.85384,61.98345],[-6.85391,61.98355]],[[-6.85211,61.98312],[-6.85305,61.98325]],[[-6.84698,61.9817],[-6.8476,61.98192],[-6.8493,61.98224],[-6.85047,61.98275],[-6.85106,61.98307],[-6.85139,61.98312],[-6.85211,61.98312]],[[-6.84228,61.97935],[-6.84351,61.98043],[-6.84427,61.98093],[-6.84464,61.98111],[-6.84507,61.98124],[-6.84698,61.9817]],[[-6.84099,61.978],[-6.84158,61.97852],[-6.84185,61.97891],[-6.84228,61.97935]],[[-6.83922,61.97703],[-6.84099,61.978]],[[-6.83685,61.97599],[-6.83717,61.97604],[-6.83752,61.97616],[-6.838,61.97644],[-6.83871,61.97675],[-6.83922,61.97703]],[[-6.83108,61.97402],[-6.8319,61.97407],[-6.83279,61.97449],[-6.833,61.97454],[-6.83389,61.9746],[-6.83428,61.97473],[-6.83463,61.97497],[-6.83517,61.97582],[-6.83538,61.976],[-6.83573,61.97605],[-6.83641,61.97599],[-6.83685,61.97599]],[[-6.83108,61.97402],[-6.83097,61.97386]],[[-6.83097,61.97386],[-6.83061,61.97337]],[[-6.83061,61.97337],[-6.83001,61.97262],[-6.82945,61.97205]],[[-6.82945,61.97205],[-6.82928,61.97187]],[[-6.82928,61.97187],[-6.82773,61.97049],[-6.82635,61.96947]],[[-6.82635,61.96947],[-6.82518,61.96871],[-6.82286,61.96734],[-6.82131,61.9663]],[[-6.82131,61.9663],[-6.82101,61.96608]],[[-6.82101,61.96608],[-6.82061,61.96616],[-6.82033,61.96613]],[[-6.82033,61.96613],[-6.82005,61.96569],[-6.81905,61.96504]],[[-6.81905,61.96504],[-6.81671,61.96363],[-6.81607,61.96331],[-6.81414,61.9625],[-6.8133,61.96208],[-6.81284,61.96176],[-6.81174,61.96078],[-6.81057,61.96017],[-6.81024,61.95989],[-6.80888,61.95916],[-6.80854,61.95889],[-6.80784,61.9585],[-6.80738,61.95818]],[[-6.80738,61.95818],[-6.80711,61.95799]],[[-6.80711,61.95799],[-6.80608,61.95765],[-6.80514,61.95716],[-6.80434,61.95681],[-6.80409,61.95665],[-6.80334,61.95595],[-6.802,61.95537]],[[-6.802,61.95537],[-6.8006,61.95485],[-6.80001,61.95471],[-6.79925,61.95462],[-6.79806,61.95426]],[[-6.79806,61.95426],[-6.79757,61.95412]],[[-6.79757,61.95412],[-6.79739,61.95411],[-6.79582,61.95369]],[[-6.79582,61.95369],[-6.79436,61.95315]],[[-6.79436,61.95315],[-6.79328,61.95275]],[[-6.79328,61.95275],[-6.79253,61.95245]],[[-6.79253,61.95245],[-6.79231,61.9527]],[[-6.79231,61.9527],[-6.79223,61.95287],[-6.79221,61.95307],[-6.79253,61.95347],[-6.79295,61.95375],[-6.79456,61.95452],[-6.79542,61.95509],[-6.7962,61.95544],[-6.79638,61.95559],[-6.79628,61.95572]],[[-6.79628,61.95572],[-6.79602,61.95578],[-6.7955,61.95574],[-6.79507,61.95582],[-6.79464,61.95568],[-6.79427,61.95569],[-6.79299,61.95601],[-6.79266,61.95613],[-6.79236,61.95634],[-6.79215,61.95643],[-6.79182,61.95654],[-6.79147,61.95659],[-6.79082,61.95653],[-6.78964,61.95618],[-6.78895,61.95624]],[[-6.79355,61.95869],[-6.7934,61.95849],[-6.79287,61.95813],[-6.79173,61.95778],[-6.79146,61.95767],[-6.79083,61.95729],[-6.79031,61.95712],[-6.78964,61.95683],[-6.78896,61.95666],[-6.78887,61.95659],[-6.78887,61.95648],[-6.78898,61.95629],[-6.78895,61.95624]],[[-6.78785,61.95819],[-6.78838,61.95776],[-6.78872,61.95757],[-6.78916,61.95753],[-6.79065,61.95789],[-6.79222,61.958],[-6.79355,61.95869]],[[-6.78785,61.95819],[-6.78838,61.95776],[-6.78872,61.95757],[-6.78916,61.95753],[-6.79065,61.95789],[-6.79222,61.958],[-6.79355,61.95869]],[[-6.79355,61.95869],[-6.7934,61.95849],[-6.79287,61.95813],[-6.79173,61.95778],[-6.79146,61.95767],[-6.79083,61.95729],[-6.79031,61.95712],[-6.78964,61.95683],[-6.78896,61.95666],[-6.78887,61.95659],[-6.78887,61.95648],[-6.78898,61.95629],[-6.78895,61.95624]],[[-6.79628,61.95572],[-6.79602,61.95578],[-6.7955,61.95574],[-6.79507,61.95582],[-6.79464,61.95568],[-6.79427,61.95569],[-6.79299,61.95601],[-6.79266,61.95613],[-6.79236,61.95634],[-6.79215,61.95643],[-6.79182,61.95654],[-6.79147,61.95659],[-6.79082,61.95653],[-6.78964,61.95618],[-6.78895,61.95624]],[[-6.79231,61.9527],[-6.79223,61.95287],[-6.79221,61.95307],[-6.79253,61.95347],[-6.79295,61.95375],[-6.79456,61.95452],[-6.79542,61.95509],[-6.7962,61.95544],[-6.79638,61.95559],[-6.79628,61.95572]],[[-6.79253,61.95245],[-6.79231,61.9527]],[[-6.79328,61.95275],[-6.79253,61.95245]],[[-6.79436,61.95315],[-6.79328,61.95275]],[[-6.79582,61.95369],[-6.79436,61.95315]],[[-6.79757,61.95412],[-6.79739,61.95411],[-6.79582,61.95369]],[[-6.79806,61.95426],[-6.79757,61.95412]],[[-6.802,61.95537],[-6.8006,61.95485],[-6.80001,61.95471],[-6.79925,61.95462],[-6.79806,61.95426]],[[-6.80711,61.95799],[-6.80608,61.95765],[-6.80514,61.95716],[-6.80434,61.95681],[-6.80409,61.95665],[-6.80334,61.95595],[-6.802,61.95537]],[[-6.80738,61.95818],[-6.80711,61.95799]],[[-6.81905,61.96504],[-6.81671,61.96363],[-6.81607,61.96331],[-6.81414,61.9625],[-6.8133,61.96208],[-6.81284,61.96176],[-6.81174,61.96078],[-6.81057,61.96017],[-6.81024,61.95989],[-6.80888,61.95916],[-6.80854,61.95889],[-6.80784,61.9585],[-6.80738,61.95818]],[[-6.82033,61.96613],[-6.82005,61.96569],[-6.81905,61.96504]],[[-6.82101,61.96608],[-6.82061,61.96616],[-6.82033,61.96613]],[[-6.82131,61.9663],[-6.82101,61.96608]],[[-6.82635,61.96947],[-6.82518,61.96871],[-6.82286,61.96734],[-6.82131,61.9663]],[[-6.82928,61.97187],[-6.82773,61.97049],[-6.82635,61.96947]],[[-6.82945,61.97205],[-6.82928,61.97187]],[[-6.83061,61.97337],[-6.83001,61.97262],[-6.82945,61.97205]],[[-6.83097,61.97386],[-6.83061,61.97337]],[[-6.83108,61.97402],[-6.83097,61.97386]],[[-6.83145,61.98084],[-6.83083,61.98055],[-6.83037,61.98018],[-6.83011,61.97981],[-6.83003,61.97945],[-6.83006,61.97921],[-6.83016,61.97896],[-6.83093,61.97791],[-6.83124,61.9774],[-6.83142,61.97701],[-6.83158,61.97646],[-6.83164,61.97578],[-6.83156,61.9751],[-6.83141,61.97461],[-6.83108,61.97402]],[[-6.83914,61.98327],[-6.8377,61.98255],[-6.83617,61.98198],[-6.83466,61.98156],[-6.83219,61.98106],[-6.83145,61.98084]],[[-6.84461,61.98563],[-6.84323,61.98524],[-6.84173,61.98468],[-6.84061,61.98414],[-6.83914,61.98327]],[[-6.84651,61.98615],[-6.84568,61.98589],[-6.84461,61.98563]],[[-6.84415,61.99565],[-6.84545,61.99212],[-6.84574,61.99155],[-6.84616,61.99097],[-6.84666,61.99045],[-6.84812,61.98921],[-6.84838,61.98884],[-6.84853,61.98848],[-6.84856,61.98813],[-6.84849,61.98778],[-6.84833,61.98743],[-6.84812,61.98716],[-6.8478,61.98686],[-6.84742,61.98659],[-6.84651,61.98615]],[[-6.84513,61.99888],[-6.84461,61.9984],[-6.84432,61.99806],[-6.8441,61.99768],[-6.84396,61.99734],[-6.84387,61.99691],[-6.84388,61.99659],[-6.84415,61.99565]],[[-6.84577,61.99948],[-6.84513,61.99888]],[[-6.8449,62.00137],[-6.84525,62.00118],[-6.8456,62.00091],[-6.84594,62.00044],[-6.84601,62.00016],[-6.846,61.99993],[-6.84577,61.99948]],[[-6.84409,62.00166],[-6.8449,62.00137]],[[-6.84342,62.0018],[-6.84409,62.00166]],[[-6.83912,62.0014],[-6.84063,62.00174],[-6.84136,62.00186],[-6.84238,62.00189],[-6.84342,62.0018]],[[-6.83741,62.00104],[-6.83912,62.0014]],[[-6.83272,62.00024],[-6.83502,62.00059],[-6.83741,62.00104]],[[-6.83098,62.00003],[-6.83272,62.00024]],[[-6.82891,61.99978],[-6.83098,62.00003]],[[-6.82826,61.9997],[-6.82891,61.99978]],[[-6.82727,61.99956],[-6.82826,61.9997]],[[-6.82634,61.99943],[-6.82727,61.99956]],[[-6.81913,61.99874],[-6.82056,61.99872],[-6.82223,61.99881],[-6.82634,61.99943]],[[-6.81734,61.99889],[-6.81913,61.99874]],[[-6.81638,61.99902],[-6.81734,61.99889]],[[-6.81281,61.99951],[-6.81638,61.99902]],[[-6.80981,61.99993],[-6.81281,61.99951]],[[-6.80974,61.99995],[-6.80981,61.99993]],[[-6.80888,62.00006],[-6.80974,61.99995]],[[-6.80749,62.00025],[-6.80888,62.00006]],[[-6.80436,62.00071],[-6.80749,62.00025]],[[-6.80068,62.00152],[-6.80436,62.00071]],[[-6.80041,62.00158],[-6.80068,62.00152]],[[-6.79955,62.00185],[-6.80041,62.00158]],[[-6.80052,62.00243],[-6.79955,62.00185]],[[-6.80052,62.00243],[-6.79977,62.00267]],[[-6.79977,62.00267],[-6.79957,62.00272]],[[-6.79914,62.00281],[-6.79957,62.00272]],[[-6.79753,62.00314],[-6.79914,62.00281]],[[-6.79711,62.00323],[-6.79753,62.00314]],[[-6.79594,62.0035],[-6.79711,62.00323]],[[-6.79495,62.00372],[-6.79594,62.0035]],[[-6.79363,62.00404],[-6.79495,62.00372]],[[-6.79307,62.00422],[-6.79363,62.00404]],[[-6.79307,62.00422],[-6.79121,62.00489]],[[-6.79121,62.00489],[-6.78999,62.0054]],[[-6.78999,62.0054],[-6.78912,62.00579]],[[-6.78897,62.00586],[-6.78912,62.00579]],[[-6.78894,62.00588],[-6.78897,62.00586]],[[-6.78891,62.00593],[-6.78894,62.00588]],[[-6.78884,62.00595],[-6.78891,62.00593]],[[-6.78878,62.00595],[-6.78884,62.00595]],[[-6.78873,62.00598],[-6.78878,62.00595]],[[-6.78853,62.00606],[-6.78873,62.00598]],[[-6.78777,62.00639],[-6.78853,62.00606]],[[-6.78571,62.00679],[-6.78683,62.00661],[-6.78777,62.00639]],[[-6.78557,62.00684],[-6.78571,62.00679]],[[-6.78532,62.0069],[-6.78557,62.00684]],[[-6.78527,62.00691],[-6.78532,62.0069]],[[-6.78523,62.00696],[-6.78527,62.00691]],[[-6.78525,62.00698],[-6.78523,62.00696]],[[-6.78541,62.00721],[-6.78542,62.00717],[-6.78525,62.00698]],[[-6.78541,62.00721],[-6.78549,62.00729]],[[-6.78549,62.00729],[-6.78558,62.00737]],[[-6.78558,62.00737],[-6.78564,62.00742]],[[-6.78564,62.00742],[-6.7857,62.0075],[-6.78564,62.00755],[-6.78488,62.0078]],[[-6.78467,62.00787],[-6.78488,62.0078]],[[-6.7846,62.00789],[-6.78467,62.00787]],[[-6.78391,62.0081],[-6.7846,62.00789]],[[-6.78354,62.00822],[-6.78391,62.0081]],[[-6.78315,62.00834],[-6.78354,62.00822]],[[-6.78258,62.00854],[-6.78315,62.00834]],[[-6.78158,62.00887],[-6.78258,62.00854]],[[-6.78101,62.00903],[-6.78158,62.00887]],[[-6.78,62.00932],[-6.78101,62.00903]],[[-6.77968,62.00942],[-6.78,62.00932]],[[-6.7792,62.00957],[-6.77968,62.00942]],[[-6.77767,62.01008],[-6.7792,62.00957]],[[-6.77722,62.01026],[-6.77767,62.01008]],[[-6.7768,62.0105],[-6.77722,62.01026]],[[-6.77616,62.01084],[-6.7768,62.0105]],[[-6.77576,62.01095],[-6.77616,62.01084]],[[-6.77458,62.01126],[-6.77576,62.01095]],[[-6.77458,62.01126],[-6.77393,62.01071]],[[-6.77393,62.01071],[-6.77379,62.01059]],[[-6.77379,62.01059],[-6.77346,62.01027]],[[-6.77346,62.01027],[-6.77283,62.00974]],[[-6.77184,62.01014],[-6.77283,62.00974]],[[-6.77184,62.01014],[-6.77153,62.01019]]]},"properties":{"id":"historical-kirkjubour","tourSlug":"historical-kirkjubour"}},{"type":"Feature","id":"viewpoint-nordadalsskard","geometry":{"type":"MultiLineString","coordinates":[[[-6.77184,62.01014],[-6.77153,62.01019]],[[-6.77184,62.01014],[-6.77283,62.00974]],[[-6.77346,62.01027],[-6.77283,62.00974]],[[-6.77379,62.01059],[-6.77346,62.01027]],[[-6.77393,62.01071],[-6.77379,62.01059]],[[-6.77458,62.01126],[-6.77393,62.01071]],[[-6.77458,62.01126],[-6.77576,62.01095]],[[-6.77576,62.01095],[-6.77616,62.01084]],[[-6.77616,62.01084],[-6.7768,62.0105]],[[-6.7768,62.0105],[-6.77722,62.01026]],[[-6.77722,62.01026],[-6.77767,62.01008]],[[-6.77767,62.01008],[-6.77847,62.01037],[-6.7789,62.01064]],[[-6.7789,62.01064],[-6.77932,62.01099]],[[-6.77932,62.01099],[-6.7794,62.01105]],[[-6.7794,62.01105],[-6.77967,62.01121],[-6.78028,62.01142]],[[-6.78028,62.01142],[-6.78093,62.01168],[-6.78215,62.01228]],[[-6.78215,62.01228],[-6.78241,62.0124]],[[-6.78241,62.0124],[-6.78316,62.01267]],[[-6.78316,62.01267],[-6.78486,62.01314]],[[-6.78486,62.01314],[-6.78542,62.0133]],[[-6.78542,62.0133],[-6.78588,62.01341]],[[-6.78588,62.01341],[-6.78682,62.01363],[-6.78788,62.01398]],[[-6.78788,62.01398],[-6.78846,62.01417]],[[-6.78796,62.01518],[-6.78806,62.01477],[-6.78846,62.01417]],[[-6.7893,62.01906],[-6.78882,62.01848],[-6.78848,62.01798],[-6.78815,62.0173],[-6.78794,62.01643],[-6.78789,62.01537],[-6.78796,62.01518]],[[-6.79061,62.01875],[-6.7893,62.01906]],[[-6.79061,62.01875],[-6.79016,62.01821]],[[-6.79016,62.01821],[-6.78995,62.01792],[-6.7897,62.01742],[-6.7897,62.01663],[-6.78982,62.01625],[-6.79005,62.01584],[-6.79034,62.01552],[-6.79062,62.01531]],[[-6.79062,62.01531],[-6.79121,62.01499],[-6.79148,62.0149],[-6.79292,62.01461]],[[-6.79292,62.01461],[-6.79436,62.01437]],[[-6.79436,62.01437],[-6.79537,62.0142]],[[-6.79537,62.0142],[-6.79808,62.01375],[-6.79873,62.01371],[-6.79939,62.01373]],[[-6.79939,62.01373],[-6.80169,62.01408]],[[-6.80169,62.01408],[-6.80323,62.01425],[-6.80676,62.01439],[-6.80881,62.01439],[-6.80964,62.01434]],[[-6.80964,62.01434],[-6.81383,62.01387]],[[-6.81383,62.01387],[-6.8149,62.0138],[-6.81627,62.0138],[-6.81761,62.01389],[-6.81845,62.01401]],[[-6.81845,62.01401],[-6.81956,62.01421],[-6.82081,62.01454],[-6.826,62.01639]],[[-6.826,62.01639],[-6.82575,62.01649],[-6.82486,62.01637],[-6.82455,62.01637],[-6.82369,62.01651]],[[-6.82369,62.01651],[-6.82306,62.01671]],[[-6.82369,62.01651],[-6.82306,62.01671]],[[-6.826,62.01639],[-6.82575,62.01649],[-6.82486,62.01637],[-6.82455,62.01637],[-6.82369,62.01651]],[[-6.826,62.01639],[-6.83094,62.01813],[-6.83199,62.01865]],[[-6.83199,62.01865],[-6.83225,62.01881],[-6.83275,62.01929]],[[-6.83275,62.01929],[-6.83287,62.01946]],[[-6.83287,62.01946],[-6.83363,62.02051],[-6.83375,62.02085]],[[-6.83375,62.02085],[-6.83437,62.02159]],[[-6.83437,62.02159],[-6.83441,62.02163]],[[-6.83441,62.02163],[-6.83448,62.02173]],[[-6.83448,62.02173],[-6.83502,62.02236],[-6.83554,62.02283],[-6.8361,62.0232],[-6.83689,62.02362]],[[-6.83689,62.02362],[-6.83752,62.02388]],[[-6.83752,62.02388],[-6.83765,62.02393]],[[-6.83765,62.02393],[-6.83904,62.02437]],[[-6.83904,62.02437],[-6.8392,62.0244]],[[-6.8392,62.0244],[-6.84002,62.02458]],[[-6.84002,62.02458],[-6.84018,62.02461]],[[-6.84018,62.02461],[-6.84497,62.02533],[-6.84669,62.02573]],[[-6.84669,62.02573],[-6.84785,62.02609],[-6.84866,62.02642],[-6.84926,62.0267],[-6.85051,62.02746],[-6.85121,62.02799],[-6.85151,62.0283],[-6.85257,62.02963],[-6.85305,62.03015],[-6.85367,62.03066]],[[-6.85367,62.03066],[-6.85435,62.03108]],[[-6.85435,62.03108],[-6.85513,62.0315],[-6.85705,62.03216]],[[-6.85705,62.03216],[-6.85808,62.03243]],[[-6.85808,62.03243],[-6.86054,62.03308]],[[-6.86054,62.03308],[-6.86201,62.03347]],[[-6.86201,62.03347],[-6.86718,62.03483],[-6.86855,62.03507],[-6.87057,62.03529]],[[-6.87057,62.03529],[-6.87188,62.03542],[-6.87324,62.03571],[-6.87438,62.03615],[-6.87513,62.03655]],[[-6.87513,62.03655],[-6.88196,62.04065]],[[-6.88196,62.04065],[-6.88386,62.04181],[-6.88606,62.04336]],[[-6.88606,62.04336],[-6.88727,62.04421],[-6.88803,62.04468]],[[-6.88803,62.04468],[-6.88991,62.04572],[-6.89669,62.0493]],[[-6.89669,62.0493],[-6.89785,62.04991],[-6.90176,62.05156],[-6.90277,62.05209],[-6.90367,62.05269],[-6.90658,62.0548],[-6.90708,62.05508],[-6.90793,62.05541],[-6.90895,62.05564],[-6.91044,62.0558],[-6.91149,62.05584]],[[-6.91149,62.05584],[-6.91239,62.05585],[-6.91645,62.05563]],[[-6.91645,62.05563],[-6.91668,62.05547],[-6.91738,62.05536],[-6.91795,62.05519],[-6.91825,62.05508],[-6.9187,62.05478]],[[-6.9187,62.05478],[-6.91887,62.05472],[-6.91936,62.05469],[-6.91952,62.05458],[-6.91947,62.05445],[-6.91901,62.05397],[-6.91903,62.05388],[-6.91967,62.05397],[-6.92023,62.05396],[-6.9206,62.0539],[-6.92067,62.05385],[-6.92079,62.05347],[-6.92158,62.05303],[-6.92185,62.05268],[-6.92185,62.05254],[-6.92154,62.05207],[-6.92154,62.05192],[-6.92198,62.0515],[-6.92234,62.05099],[-6.9228,62.05063],[-6.92286,62.05047],[-6.922,62.05007],[-6.92195,62.05002],[-6.92201,62.04997],[-6.92238,62.04995],[-6.92247,62.04992],[-6.92249,62.04984],[-6.92186,62.0496],[-6.92182,62.04952],[-6.92196,62.04945],[-6.92242,62.04949],[-6.92256,62.04943],[-6.92265,62.04916],[-6.92286,62.04884],[-6.92295,62.0483],[-6.92307,62.04811],[-6.92305,62.04797],[-6.92296,62.04789]],[[-6.92296,62.04789],[-6.92277,62.04775]],[[-6.92277,62.04775],[-6.92235,62.04735]],[[-6.92235,62.04735],[-6.92228,62.04726]],[[-6.92228,62.04726],[-6.92188,62.0468],[-6.92188,62.04675],[-6.92197,62.04672],[-6.9227,62.04686],[-6.92294,62.04686],[-6.92307,62.04678],[-6.92347,62.0463],[-6.92403,62.04574],[-6.92443,62.04559]],[[-6.92443,62.04559],[-6.92459,62.04556]],[[-6.92459,62.04556],[-6.9253,62.04551],[-6.92569,62.04532]],[[-6.92569,62.04532],[-6.9259,62.04503],[-6.92614,62.04488],[-6.92672,62.04464]],[[-6.92672,62.04464],[-6.92662,62.04455]],[[-6.92662,62.04455],[-6.92651,62.04442]],[[-6.92651,62.04442],[-6.92649,62.0443],[-6.92654,62.0442],[-6.9268,62.04391],[-6.92696,62.04364],[-6.92687,62.04352],[-6.92599,62.043],[-6.92594,62.04277],[-6.92613,62.04258],[-6.92614,62.04251],[-6.92585,62.0423],[-6.92604,62.04196]],[[-6.92604,62.04196],[-6.92616,62.04156],[-6.92615,62.04136],[-6.92608,62.04121],[-6.92625,62.04087]],[[-6.92625,62.04087],[-6.92621,62.04081]],[[-6.92621,62.04081],[-6.92615,62.04062]],[[-6.92615,62.04062],[-6.92623,62.04046],[-6.92663,62.04024]],[[-6.92663,62.04024],[-6.92665,62.04018]],[[-6.92665,62.04018],[-6.92663,62.04016]],[[-6.92626,62.04009],[-6.92663,62.04016]],[[-6.92623,62.04003],[-6.92626,62.04009]],[[-6.92625,62.03999],[-6.92623,62.04003]],[[-6.92626,62.03988],[-6.92625,62.03999]]]},"properties":{"id":"viewpoint-nordadalsskard","tourSlug":"viewpoint-nordadalsskard"}},{"type":"Feature","id":"westward-journey","geometry":{"type":"MultiLineString","coordinates":[[[-6.77184,62.01014],[-6.77153,62.01019]],[[-6.77184,62.01014],[-6.77283,62.00974]],[[-6.77346,62.01027],[-6.77283,62.00974]],[[-6.77379,62.01059],[-6.77346,62.01027]],[[-6.77393,62.01071],[-6.77379,62.01059]],[[-6.77458,62.01126],[-6.77393,62.01071]],[[-6.77458,62.01126],[-6.77576,62.01095]],[[-6.77576,62.01095],[-6.77616,62.01084]],[[-6.77616,62.01084],[-6.7768,62.0105]],[[-6.7768,62.0105],[-6.77722,62.01026]],[[-6.77722,62.01026],[-6.77767,62.01008]],[[-6.77767,62.01008],[-6.77847,62.01037],[-6.7789,62.01064]],[[-6.7789,62.01064],[-6.77932,62.01099]],[[-6.77932,62.01099],[-6.7794,62.01105]],[[-6.7794,62.01105],[-6.77967,62.01121],[-6.78028,62.01142]],[[-6.78028,62.01142],[-6.78093,62.01168],[-6.78215,62.01228]],[[-6.78215,62.01228],[-6.78241,62.0124]],[[-6.78241,62.0124],[-6.78316,62.01267]],[[-6.78316,62.01267],[-6.78486,62.01314]],[[-6.78486,62.01314],[-6.78542,62.0133]],[[-6.78542,62.0133],[-6.78588,62.01341]],[[-6.78588,62.01341],[-6.78682,62.01363],[-6.78788,62.01398]],[[-6.78788,62.01398],[-6.78846,62.01417]],[[-6.78796,62.01518],[-6.78806,62.01477],[-6.78846,62.01417]],[[-6.7893,62.01906],[-6.78882,62.01848],[-6.78848,62.01798],[-6.78815,62.0173],[-6.78794,62.01643],[-6.78789,62.01537],[-6.78796,62.01518]],[[-6.79061,62.01875],[-6.7893,62.01906]],[[-6.79061,62.01875],[-6.79016,62.01821]],[[-6.79016,62.01821],[-6.78995,62.01792],[-6.7897,62.01742],[-6.7897,62.01663],[-6.78982,62.01625],[-6.79005,62.01584],[-6.79034,62.01552],[-6.79062,62.01531]],[[-6.79062,62.01531],[-6.79121,62.01499],[-6.79148,62.0149],[-6.79292,62.01461]],[[-6.79292,62.01461],[-6.79436,62.01437]],[[-6.79436,62.01437],[-6.79537,62.0142]],[[-6.79537,62.0142],[-6.79808,62.01375],[-6.79873,62.01371],[-6.79939,62.01373]],[[-6.79939,62.01373],[-6.80169,62.01408]],[[-6.80169,62.01408],[-6.80323,62.01425],[-6.80676,62.01439],[-6.80881,62.01439],[-6.80964,62.01434]],[[-6.80964,62.01434],[-6.81383,62.01387]],[[-6.81383,62.01387],[-6.8149,62.0138],[-6.81627,62.0138],[-6.81761,62.01389],[-6.81845,62.01401]],[[-6.81845,62.01401],[-6.81956,62.01421],[-6.82081,62.01454],[-6.826,62.01639]],[[-6.826,62.01639],[-6.82575,62.01649],[-6.82486,62.01637],[-6.82455,62.01637],[-6.82369,62.01651]],[[-6.82369,62.01651],[-6.82306,62.01671]],[[-6.82369,62.01651],[-6.82306,62.01671]],[[-6.826,62.01639],[-6.82575,62.01649],[-6.82486,62.01637],[-6.82455,62.01637],[-6.82369,62.01651]],[[-6.826,62.01639],[-6.83094,62.01813],[-6.83199,62.01865]],[[-6.83199,62.01865],[-6.83225,62.01881],[-6.83275,62.01929]],[[-6.83275,62.01929],[-6.83287,62.01946]],[[-6.83287,62.01946],[-6.83363,62.02051],[-6.83375,62.02085]],[[-6.83375,62.02085],[-6.83437,62.02159]],[[-6.83437,62.02159],[-6.83441,62.02163]],[[-6.83441,62.02163],[-6.83448,62.02173]],[[-6.83448,62.02173],[-6.83502,62.02236],[-6.83554,62.02283],[-6.8361,62.0232],[-6.83689,62.02362]],[[-6.83689,62.02362],[-6.83752,62.02388]],[[-6.83752,62.02388],[-6.83765,62.02393]],[[-6.83765,62.02393],[-6.83904,62.02437]],[[-6.83904,62.02437],[-6.8392,62.0244]],[[-6.8392,62.0244],[-6.84002,62.02458]],[[-6.84002,62.02458],[-6.84018,62.02461]],[[-6.84018,62.02461],[-6.84497,62.02533],[-6.84669,62.02573]],[[-6.84669,62.02573],[-6.84785,62.02609],[-6.84866,62.02642],[-6.84926,62.0267],[-6.85051,62.02746],[-6.85121,62.02799],[-6.85151,62.0283],[-6.85257,62.02963],[-6.85305,62.03015],[-6.85367,62.03066]],[[-6.85367,62.03066],[-6.85435,62.03108]],[[-6.85435,62.03108],[-6.85513,62.0315],[-6.85705,62.03216]],[[-6.85705,62.03216],[-6.85808,62.03243]],[[-6.85808,62.03243],[-6.86054,62.03308]],[[-6.86054,62.03308],[-6.86201,62.03347]],[[-6.86201,62.03347],[-6.86718,62.03483],[-6.86855,62.03507],[-6.87057,62.03529]],[[-6.87057,62.03529],[-6.87188,62.03542],[-6.87324,62.03571],[-6.87438,62.03615],[-6.87513,62.03655]],[[-6.87513,62.03655],[-6.88196,62.04065]],[[-6.88196,62.04065],[-6.88386,62.04181],[-6.88606,62.04336]],[[-6.88606,62.04336],[-6.88727,62.04421],[-6.88803,62.04468]],[[-6.88803,62.04468],[-6.88991,62.04572],[-6.89669,62.0493]],[[-6.89669,62.0493],[-6.89785,62.04991],[-6.90176,62.05156],[-6.90277,62.05209],[-6.90367,62.05269],[-6.90658,62.0548],[-6.90708,62.05508],[-6.90793,62.05541],[-6.90895,62.05564],[-6.91044,62.0558],[-6.91149,62.05584]],[[-6.91149,62.05584],[-6.91239,62.05585],[-6.91645,62.05563]],[[-6.91645,62.05563],[-6.91668,62.05547],[-6.91738,62.05536],[-6.91795,62.05519],[-6.91825,62.05508],[-6.9187,62.05478]],[[-6.9187,62.05478],[-6.91887,62.05472],[-6.91936,62.05469],[-6.91952,62.05458],[-6.91947,62.05445],[-6.91901,62.05397],[-6.91903,62.05388],[-6.91967,62.05397],[-6.92023,62.05396],[-6.9206,62.0539],[-6.92067,62.05385],[-6.92079,62.05347],[-6.92158,62.05303],[-6.92185,62.05268],[-6.92185,62.05254],[-6.92154,62.05207],[-6.92154,62.05192],[-6.92198,62.0515],[-6.92234,62.05099],[-6.9228,62.05063],[-6.92286,62.05047],[-6.922,62.05007],[-6.92195,62.05002],[-6.92201,62.04997],[-6.92238,62.04995],[-6.92247,62.04992],[-6.92249,62.04984],[-6.92186,62.0496],[-6.92182,62.04952],[-6.92196,62.04945],[-6.92242,62.04949],[-6.92256,62.04943],[-6.92265,62.04916],[-6.92286,62.04884],[-6.92295,62.0483],[-6.92307,62.04811],[-6.92305,62.04797],[-6.92296,62.04789]],[[-6.92296,62.04789],[-6.92277,62.04775]],[[-6.92277,62.04775],[-6.92235,62.04735]],[[-6.92235,62.04735],[-6.92228,62.04726]],[[-6.92228,62.04726],[-6.92188,62.0468],[-6.92188,62.04675],[-6.92197,62.04672],[-6.9227,62.04686],[-6.92294,62.04686],[-6.92307,62.04678],[-6.92347,62.0463],[-6.92403,62.04574],[-6.92443,62.04559]],[[-6.92443,62.04559],[-6.92459,62.04556]],[[-6.92459,62.04556],[-6.9253,62.04551],[-6.92569,62.04532]],[[-6.92569,62.04532],[-6.9259,62.04503],[-6.92614,62.04488],[-6.92672,62.04464]],[[-6.92672,62.04464],[-6.92788,62.04416],[-6.92872,62.04388],[-6.92947,62.04345],[-6.92977,62.04333],[-6.93015,62.04327]],[[-6.93015,62.04327],[-6.93108,62.04309],[-6.93341,62.04242],[-6.93473,62.04214]],[[-6.93473,62.04214],[-6.9359,62.04185],[-6.93757,62.04156],[-6.93819,62.04154],[-6.93895,62.04168],[-6.93949,62.04167],[-6.94035,62.04142],[-6.94136,62.04121],[-6.94222,62.0412]],[[-6.94222,62.0412],[-6.94491,62.04124],[-6.94613,62.04104],[-6.94762,62.04088]],[[-6.94762,62.04088],[-6.94872,62.04066],[-6.94945,62.04061],[-6.95287,62.04069]],[[-6.95287,62.04069],[-6.95393,62.04069],[-6.95472,62.04078]],[[-6.95472,62.04078],[-6.95484,62.04077],[-6.95575,62.0402],[-6.95805,62.04013]],[[-6.95805,62.04013],[-6.95899,62.04009],[-6.9604,62.04023]],[[-6.95992,62.04204],[-6.9604,62.04023]],[[-6.95974,62.04272],[-6.95992,62.04204]],[[-6.97135,62.04653],[-6.9707,62.04656],[-6.97004,62.0465],[-6.96824,62.04613],[-6.96614,62.04579],[-6.96567,62.04567],[-6.96535,62.04545],[-6.96517,62.04524],[-6.96526,62.04487],[-6.96523,62.0444],[-6.96529,62.04432],[-6.96525,62.04394],[-6.96501,62.04379],[-6.9644,62.04375],[-6.96323,62.04356],[-6.96075,62.04302],[-6.95974,62.04272]],[[-6.97372,62.04708],[-6.97258,62.04685],[-6.97135,62.04653]],[[-6.97874,62.05886],[-6.97868,62.05854],[-6.97882,62.05839],[-6.97861,62.05835],[-6.97851,62.0581],[-6.97851,62.05791],[-6.97864,62.05772],[-6.9786,62.05741],[-6.97913,62.05703],[-6.97935,62.05681],[-6.97926,62.05665],[-6.97871,62.05639],[-6.9781,62.0558],[-6.97787,62.05548],[-6.97748,62.05511],[-6.97744,62.0548],[-6.97752,62.05464],[-6.97708,62.0543],[-6.97698,62.05406],[-6.97639,62.05382],[-6.97601,62.05339],[-6.97605,62.05317],[-6.97591,62.05277],[-6.97603,62.05231],[-6.97587,62.0519],[-6.97585,62.05157],[-6.97567,62.05128],[-6.97553,62.05117],[-6.97544,62.05096],[-6.97471,62.05046],[-6.9748,62.05018],[-6.97443,62.04923],[-6.97432,62.04913],[-6.97426,62.04886],[-6.97407,62.04874],[-6.97395,62.0485],[-6.97356,62.04819],[-6.97357,62.04809],[-6.97324,62.0479],[-6.97305,62.04764],[-6.9728,62.04747],[-6.9728,62.04737],[-6.97273,62.04732],[-6.97283,62.04725],[-6.97275,62.04715],[-6.97372,62.04708]]]},"properties":{"id":"westward-journey","tourSlug":"westward-journey"}}]}