{"type":"FeatureCollection","features":[{"type":"Feature","id":"tunnel-1315659116","geometry":{"type":"MultiLineString","coordinates":[[[-6.84493,61.52115],[-6.84412,61.52173],[-6.84342,61.52234],[-6.84121,61.52476],[-6.84047,61.52528],[-6.83965,61.52563],[-6.83845,61.52603],[-6.8335,61.5273],[-6.83224,61.52781],[-6.83118,61.52849],[-6.83032,61.52927]]]},"properties":{"id":"tunnel-1315659116","kind":"tunnel","name":"Fámjinstunnilin","open":true,"lengthKm":1.2,"osmId":1315659116}},{"type":"Feature","id":"tunnel-1315659116-p0","geometry":{"type":"Point","coordinates":[-6.84493,61.52115]},"properties":{"id":"tunnel-1315659116-p0","kind":"portal","tunnelId":"tunnel-1315659116","bearing":34,"open":true,"name":"Fámjinstunnilin","lengthKm":1.2}},{"type":"Feature","id":"tunnel-1315659116-p1","geometry":{"type":"Point","coordinates":[-6.83032,61.52927]},"properties":{"id":"tunnel-1315659116-p1","kind":"portal","tunnelId":"tunnel-1315659116","bearing":208,"open":true,"name":"Fámjinstunnilin","lengthKm":1.2}},{"type":"Feature","id":"tunnel-30099478","geometry":{"type":"MultiLineString","coordinates":[[[-6.79386,61.52845],[-6.79346,61.52807],[-6.79288,61.52741],[-6.79245,61.52673],[-6.78927,61.52032],[-6.78404,61.50998],[-6.78372,61.50926],[-6.78325,61.50853],[-6.78277,61.50796],[-6.78256,61.50773],[-6.78185,61.50717]]]},"properties":{"id":"tunnel-30099478","kind":"tunnel","name":"Hovs Tunnilin","open":true,"lengthKm":2.5,"osmId":30099478}},{"type":"Feature","id":"tunnel-30099478-p0","geometry":{"type":"Point","coordinates":[-6.79386,61.52845]},"properties":{"id":"tunnel-30099478-p0","kind":"portal","tunnelId":"tunnel-30099478","bearing":153,"open":true,"name":"Hovs Tunnilin","lengthKm":2.5}},{"type":"Feature","id":"tunnel-30099478-p1","geometry":{"type":"Point","coordinates":[-6.78185,61.50717]},"properties":{"id":"tunnel-30099478-p1","kind":"portal","tunnelId":"tunnel-30099478","bearing":327,"open":true,"name":"Hovs Tunnilin","lengthKm":2.5}},{"type":"Feature","id":"tunnel-30099555","geometry":{"type":"MultiLineString","coordinates":[[[-6.91382,61.56033],[-6.92499,61.57215]]]},"properties":{"id":"tunnel-30099555","kind":"tunnel","name":"Hvalbiartunnilin","open":false,"lengthKm":1.4,"osmId":30099555}},{"type":"Feature","id":"tunnel-30099555-p0","geometry":{"type":"Point","coordinates":[-6.91382,61.56033]},"properties":{"id":"tunnel-30099555-p0","kind":"portal","tunnelId":"tunnel-30099555","bearing":336,"open":false,"name":"Hvalbiartunnilin","lengthKm":1.4}},{"type":"Feature","id":"tunnel-30099555-p1","geometry":{"type":"Point","coordinates":[-6.92499,61.57215]},"properties":{"id":"tunnel-30099555-p1","kind":"portal","tunnelId":"tunnel-30099555","bearing":156,"open":false,"name":"Hvalbiartunnilin","lengthKm":1.4}},{"type":"Feature","id":"tunnel-30099573","geometry":{"type":"MultiLineString","coordinates":[[[-6.9263,61.6104],[-6.93097,61.62357]]]},"properties":{"id":"tunnel-30099573","kind":"tunnel","name":"Sandvíkartunnilin","open":true,"lengthKm":1.5,"osmId":30099573}},{"type":"Feature","id":"tunnel-30099573-p0","geometry":{"type":"Point","coordinates":[-6.9263,61.6104]},"properties":{"id":"tunnel-30099573-p0","kind":"portal","tunnelId":"tunnel-30099573","bearing":350,"open":true,"name":"Sandvíkartunnilin","lengthKm":1.5}},{"type":"Feature","id":"tunnel-30099573-p1","geometry":{"type":"Point","coordinates":[-6.93097,61.62357]},"properties":{"id":"tunnel-30099573-p1","kind":"portal","tunnelId":"tunnel-30099573","bearing":170,"open":true,"name":"Sandvíkartunnilin","lengthKm":1.5}},{"type":"Feature","id":"tunnel-31987190","geometry":{"type":"MultiLineString","coordinates":[[[-7.02591,62.12545],[-7.02335,62.1257],[-7.01944,62.12649],[-7.01638,62.12737],[-7.01496,62.12761],[-7.01261,62.12788]]]},"properties":{"id":"tunnel-31987190","kind":"tunnel","name":"Leynartunnilin","open":true,"lengthKm":0.7,"osmId":31987190}},{"type":"Feature","id":"tunnel-31987190-p0","geometry":{"type":"Point","coordinates":[-7.02591,62.12545]},"properties":{"id":"tunnel-31987190-p0","kind":"portal","tunnelId":"tunnel-31987190","bearing":81,"open":true,"name":"Leynartunnilin","lengthKm":0.7}},{"type":"Feature","id":"tunnel-31987190-p1","geometry":{"type":"Point","coordinates":[-7.01261,62.12788]},"properties":{"id":"tunnel-31987190-p1","kind":"portal","tunnelId":"tunnel-31987190","bearing":256,"open":true,"name":"Leynartunnilin","lengthKm":0.7}},{"type":"Feature","id":"tunnel-34150731","geometry":{"type":"MultiLineString","coordinates":[[[-6.71863,62.21494],[-6.72005,62.21514],[-6.72248,62.21522],[-6.72686,62.21504],[-6.73029,62.21453],[-6.73209,62.21398],[-6.73423,62.21312],[-6.75344,62.20509]]]},"properties":{"id":"tunnel-34150731","kind":"tunnel","name":"Leirvíkartunnilin","open":true,"lengthKm":2.2,"osmId":34150731}},{"type":"Feature","id":"tunnel-34150731-p0","geometry":{"type":"Point","coordinates":[-6.71863,62.21494]},"properties":{"id":"tunnel-34150731-p0","kind":"portal","tunnelId":"tunnel-34150731","bearing":287,"open":true,"name":"Leirvíkartunnilin","lengthKm":2.2}},{"type":"Feature","id":"tunnel-34150731-p1","geometry":{"type":"Point","coordinates":[-6.75344,62.20509]},"properties":{"id":"tunnel-34150731-p1","kind":"portal","tunnelId":"tunnel-34150731","bearing":48,"open":true,"name":"Leirvíkartunnilin","lengthKm":2.2}},{"type":"Feature","id":"tunnel-34440860","geometry":{"type":"MultiLineString","coordinates":[[[-6.54345,62.25877],[-6.52125,62.27471]],[[-6.54078,62.25807],[-6.5401,62.25869],[-6.53903,62.25943],[-6.52244,62.26966],[-6.5215,62.2703],[-6.521,62.27072],[-6.52052,62.27122],[-6.5201,62.27179],[-6.51979,62.27241],[-6.51961,62.27304],[-6.51956,62.27359],[-6.51965,62.27424],[-6.51986,62.27484]]]},"properties":{"id":"tunnel-34440860","kind":"tunnel","name":"Hvannasundstunnilin","open":true,"lengthKm":4.3,"osmId":34440860}},{"type":"Feature","id":"tunnel-34440860-p0","geometry":{"type":"Point","coordinates":[-6.54345,62.25877]},"properties":{"id":"tunnel-34440860-p0","kind":"portal","tunnelId":"tunnel-34440860","bearing":33,"open":true,"name":"Hvannasundstunnilin","lengthKm":4.3}},{"type":"Feature","id":"tunnel-34440860-p1","geometry":{"type":"Point","coordinates":[-6.52125,62.27471]},"properties":{"id":"tunnel-34440860-p1","kind":"portal","tunnelId":"tunnel-34440860","bearing":213,"open":true,"name":"Hvannasundstunnilin","lengthKm":4.3}},{"type":"Feature","id":"tunnel-34440860-p2","geometry":{"type":"Point","coordinates":[-6.54078,62.25807]},"properties":{"id":"tunnel-34440860-p2","kind":"portal","tunnelId":"tunnel-34440860","bearing":26,"open":true,"name":"Hvannasundstunnilin","lengthKm":4.3}},{"type":"Feature","id":"tunnel-34440860-p3","geometry":{"type":"Point","coordinates":[-6.51986,62.27484]},"properties":{"id":"tunnel-34440860-p3","kind":"portal","tunnelId":"tunnel-34440860","bearing":170,"open":true,"name":"Hvannasundstunnilin","lengthKm":4.3}},{"type":"Feature","id":"tunnel-34442329","geometry":{"type":"MultiLineString","coordinates":[[[-6.57573,62.2552],[-6.54426,62.2579]],[[-6.57835,62.25124],[-6.57693,62.25163],[-6.57553,62.25192],[-6.5738,62.25213],[-6.57216,62.25222],[-6.57052,62.2522],[-6.55446,62.2516],[-6.55297,62.25159],[-6.55169,62.25165],[-6.54956,62.25191],[-6.5487,62.25207],[-6.54744,62.25239],[-6.54636,62.25273],[-6.54568,62.253],[-6.54474,62.25346],[-6.54408,62.25385]]]},"properties":{"id":"tunnel-34442329","kind":"tunnel","name":"Árnafjarðartunnilin","open":true,"lengthKm":3.5,"osmId":34442329}},{"type":"Feature","id":"tunnel-34442329-p0","geometry":{"type":"Point","coordinates":[-6.57573,62.2552]},"properties":{"id":"tunnel-34442329-p0","kind":"portal","tunnelId":"tunnel-34442329","bearing":80,"open":true,"name":"Árnafjarðartunnilin","lengthKm":3.5}},{"type":"Feature","id":"tunnel-34442329-p1","geometry":{"type":"Point","coordinates":[-6.54426,62.2579]},"properties":{"id":"tunnel-34442329-p1","kind":"portal","tunnelId":"tunnel-34442329","bearing":260,"open":true,"name":"Árnafjarðartunnilin","lengthKm":3.5}},{"type":"Feature","id":"tunnel-34442329-p2","geometry":{"type":"Point","coordinates":[-6.57835,62.25124]},"properties":{"id":"tunnel-34442329-p2","kind":"portal","tunnelId":"tunnel-34442329","bearing":56,"open":true,"name":"Árnafjarðartunnilin","lengthKm":3.5}},{"type":"Feature","id":"tunnel-34442329-p3","geometry":{"type":"Point","coordinates":[-6.54408,62.25385]},"properties":{"id":"tunnel-34442329-p3","kind":"portal","tunnelId":"tunnel-34442329","bearing":217,"open":true,"name":"Árnafjarðartunnilin","lengthKm":3.5}},{"type":"Feature","id":"tunnel-40269227","geometry":{"type":"MultiLineString","coordinates":[[[-7.40365,62.0997],[-7.42735,62.10624]]]},"properties":{"id":"tunnel-40269227","kind":"tunnel","name":"Gásadalstunnilin","open":true,"lengthKm":1.4,"osmId":40269227}},{"type":"Feature","id":"tunnel-40269227-p0","geometry":{"type":"Point","coordinates":[-7.40365,62.0997]},"properties":{"id":"tunnel-40269227-p0","kind":"portal","tunnelId":"tunnel-40269227","bearing":301,"open":true,"name":"Gásadalstunnilin","lengthKm":1.4}},{"type":"Feature","id":"tunnel-40269227-p1","geometry":{"type":"Point","coordinates":[-7.42735,62.10624]},"properties":{"id":"tunnel-40269227-p1","kind":"portal","tunnelId":"tunnel-40269227","bearing":121,"open":true,"name":"Gásadalstunnilin","lengthKm":1.4}},{"type":"Feature","id":"tunnel-40271189","geometry":{"type":"MultiLineString","coordinates":[[[-6.59992,62.26752],[-6.65623,62.27204],[-6.65755,62.27226]]]},"properties":{"id":"tunnel-40271189","kind":"tunnel","name":"Kunoyartunnilin","open":true,"lengthKm":3,"osmId":40271189}},{"type":"Feature","id":"tunnel-40271189-p0","geometry":{"type":"Point","coordinates":[-6.59992,62.26752]},"properties":{"id":"tunnel-40271189-p0","kind":"portal","tunnelId":"tunnel-40271189","bearing":280,"open":true,"name":"Kunoyartunnilin","lengthKm":3}},{"type":"Feature","id":"tunnel-40271189-p1","geometry":{"type":"Point","coordinates":[-6.65755,62.27226]},"properties":{"id":"tunnel-40271189-p1","kind":"portal","tunnelId":"tunnel-40271189","bearing":113,"open":true,"name":"Kunoyartunnilin","lengthKm":3}},{"type":"Feature","id":"tunnel-41918049","geometry":{"type":"MultiLineString","coordinates":[[[-6.74451,61.41302],[-6.74628,61.41443],[-6.74882,61.41661],[-6.74951,61.41738],[-6.75007,61.41816],[-6.75041,61.41892],[-6.7506,61.41965],[-6.7506,61.42039],[-6.75045,61.42114],[-6.74935,61.42347],[-6.74929,61.42417],[-6.74939,61.42489],[-6.74975,61.42567],[-6.75025,61.42646],[-6.75092,61.4272],[-6.75164,61.42793],[-6.75329,61.42917],[-6.75504,61.43033],[-6.75653,61.43123],[-6.76097,61.43367],[-6.76915,61.43791]]]},"properties":{"id":"tunnel-41918049","kind":"tunnel","name":"Sumbiartunnilin","open":true,"lengthKm":3.2,"osmId":41918049}},{"type":"Feature","id":"tunnel-41918049-p0","geometry":{"type":"Point","coordinates":[-6.74451,61.41302]},"properties":{"id":"tunnel-41918049-p0","kind":"portal","tunnelId":"tunnel-41918049","bearing":329,"open":true,"name":"Sumbiartunnilin","lengthKm":3.2}},{"type":"Feature","id":"tunnel-41918049-p1","geometry":{"type":"Point","coordinates":[-6.76915,61.43791]},"properties":{"id":"tunnel-41918049-p1","kind":"portal","tunnelId":"tunnel-41918049","bearing":138,"open":true,"name":"Sumbiartunnilin","lengthKm":3.2}},{"type":"Feature","id":"tunnel-493141202","geometry":{"type":"MultiLineString","coordinates":[[[-6.5297,62.31378],[-6.52971,62.31424],[-6.52956,62.31469],[-6.52928,62.31517],[-6.52897,62.31553],[-6.52797,62.31629],[-6.52689,62.31697],[-6.51655,62.32303],[-6.51124,62.32622],[-6.50981,62.32715],[-6.50878,62.32803]]]},"properties":{"id":"tunnel-493141202","kind":"tunnel","name":"Viðareiðistunnilin","open":true,"lengthKm":1.9,"osmId":493141202}},{"type":"Feature","id":"tunnel-493141202-p0","geometry":{"type":"Point","coordinates":[-6.5297,62.31378]},"properties":{"id":"tunnel-493141202-p0","kind":"portal","tunnelId":"tunnel-493141202","bearing":360,"open":true,"name":"Viðareiðistunnilin","lengthKm":1.9}},{"type":"Feature","id":"tunnel-493141202-p1","geometry":{"type":"Point","coordinates":[-6.50878,62.32803]},"properties":{"id":"tunnel-493141202-p1","kind":"portal","tunnelId":"tunnel-493141202","bearing":207,"open":true,"name":"Viðareiðistunnilin","lengthKm":1.9}},{"type":"Feature","id":"tunnel-741715528","geometry":{"type":"MultiLineString","coordinates":[[[-6.88192,61.56424],[-6.88419,61.56457],[-6.88588,61.56489],[-6.88803,61.56539],[-6.92069,61.57425],[-6.9243,61.57508]]]},"properties":{"id":"tunnel-741715528","kind":"tunnel","name":"Nýggjur Hvalbiartunnilin","open":true,"lengthKm":2.6,"osmId":741715528}},{"type":"Feature","id":"tunnel-741715528-p0","geometry":{"type":"Point","coordinates":[-6.88192,61.56424]},"properties":{"id":"tunnel-741715528-p0","kind":"portal","tunnelId":"tunnel-741715528","bearing":283,"open":true,"name":"Nýggjur Hvalbiartunnilin","lengthKm":2.6}},{"type":"Feature","id":"tunnel-741715528-p1","geometry":{"type":"Point","coordinates":[-6.9243,61.57508]},"properties":{"id":"tunnel-741715528-p1","kind":"portal","tunnelId":"tunnel-741715528","bearing":114,"open":true,"name":"Nýggjur Hvalbiartunnilin","lengthKm":2.6}},{"type":"Feature","id":"tunnel-777287529","geometry":{"type":"MultiLineString","coordinates":[[[-6.79845,62.02925],[-6.79889,62.02829],[-6.80188,62.01615],[-6.80209,62.01558],[-6.80248,62.01487],[-6.80282,62.01439],[-6.80412,62.01308]]]},"properties":{"id":"tunnel-777287529","kind":"tunnel","name":"Húsareynstunnilin","open":true,"lengthKm":1.8,"osmId":777287529}},{"type":"Feature","id":"tunnel-777287529-p0","geometry":{"type":"Point","coordinates":[-6.79845,62.02925]},"properties":{"id":"tunnel-777287529-p0","kind":"portal","tunnelId":"tunnel-777287529","bearing":191,"open":true,"name":"Húsareynstunnilin","lengthKm":1.8}},{"type":"Feature","id":"tunnel-777287529-p1","geometry":{"type":"Point","coordinates":[-6.80412,62.01308]},"properties":{"id":"tunnel-777287529-p1","kind":"portal","tunnelId":"tunnel-777287529","bearing":26,"open":true,"name":"Húsareynstunnilin","lengthKm":1.8}},{"type":"Feature","id":"tunnel-848606645","geometry":{"type":"MultiLineString","coordinates":[[[-6.67646,61.80456],[-6.67614,61.80407],[-6.6704,61.79344],[-6.66936,61.79141],[-6.66902,61.79035],[-6.66896,61.78976],[-6.66897,61.78922],[-6.66907,61.78868],[-6.66931,61.78814],[-6.66966,61.78765],[-6.67001,61.78734],[-6.67113,61.78662],[-6.67201,61.78627],[-6.67269,61.7861]]]},"properties":{"id":"tunnel-848606645","kind":"tunnel","name":"Dalstunnilin","open":true,"lengthKm":2.2,"osmId":848606645}},{"type":"Feature","id":"tunnel-848606645-p0","geometry":{"type":"Point","coordinates":[-6.67646,61.80456]},"properties":{"id":"tunnel-848606645-p0","kind":"portal","tunnelId":"tunnel-848606645","bearing":160,"open":true,"name":"Dalstunnilin","lengthKm":2.2}},{"type":"Feature","id":"tunnel-848606645-p1","geometry":{"type":"Point","coordinates":[-6.67269,61.7861]},"properties":{"id":"tunnel-848606645-p1","kind":"portal","tunnelId":"tunnel-848606645","bearing":62,"open":true,"name":"Dalstunnilin","lengthKm":2.2}},{"type":"Feature","id":"tunnel-A","geometry":{"type":"MultiLineString","coordinates":[[[-7.04348,62.12328],[-7.04535,62.12303],[-7.04798,62.12255],[-7.04981,62.12204],[-7.05168,62.12136],[-7.05581,62.11954],[-7.06504,62.11519],[-7.0952,62.10121],[-7.098,62.09999],[-7.09987,62.09934],[-7.10188,62.09879],[-7.10303,62.09857],[-7.1046,62.09833],[-7.10648,62.09814],[-7.10848,62.09808],[-7.11107,62.09817],[-7.11213,62.09825],[-7.1145,62.0986],[-7.11652,62.09908]]]},"properties":{"id":"tunnel-A","kind":"tunnel","name":"Vágatunnilin","open":true,"letter":"A","lengthKm":4.9,"osmId":31987198}},{"type":"Feature","id":"tunnel-A-p0","geometry":{"type":"Point","coordinates":[-7.04348,62.12328]},"properties":{"id":"tunnel-A-p0","kind":"portal","tunnelId":"tunnel-A","bearing":254,"open":true,"name":"Vágatunnilin","letter":"A","lengthKm":4.9}},{"type":"Feature","id":"tunnel-A-p1","geometry":{"type":"Point","coordinates":[-7.11652,62.09908]},"properties":{"id":"tunnel-A-p1","kind":"portal","tunnelId":"tunnel-A","bearing":119,"open":true,"name":"Vágatunnilin","letter":"A","lengthKm":4.9}},{"type":"Feature","id":"tunnel-B","geometry":{"type":"MultiLineString","coordinates":[[[-6.97828,62.21876],[-6.93101,62.2231]]]},"properties":{"id":"tunnel-B","kind":"tunnel","name":"Norðskálatunnilin","open":true,"letter":"B","lengthKm":2.5,"osmId":28305023}},{"type":"Feature","id":"tunnel-B-p0","geometry":{"type":"Point","coordinates":[-6.97828,62.21876]},"properties":{"id":"tunnel-B-p0","kind":"portal","tunnelId":"tunnel-B","bearing":79,"open":true,"name":"Norðskálatunnilin","letter":"B","lengthKm":2.5}},{"type":"Feature","id":"tunnel-B-p1","geometry":{"type":"Point","coordinates":[-6.93101,62.2231]},"properties":{"id":"tunnel-B-p1","kind":"portal","tunnelId":"tunnel-B","bearing":259,"open":true,"name":"Norðskálatunnilin","letter":"B","lengthKm":2.5}},{"type":"Feature","id":"tunnel-C","geometry":{"type":"MultiLineString","coordinates":[[[-6.57404,62.21815],[-6.57416,62.21774],[-6.57458,62.21685],[-6.57534,62.21588],[-6.57579,62.21541],[-6.57627,62.215],[-6.57731,62.21426],[-6.57868,62.21346],[-6.57971,62.21297],[-6.58163,62.21222],[-6.58256,62.21191],[-6.58444,62.21142],[-6.58561,62.21116],[-6.58769,62.21082],[-6.59039,62.21052],[-6.59856,62.20991],[-6.63118,62.20703],[-6.65759,62.20475],[-6.66147,62.20446],[-6.66328,62.20437],[-6.66537,62.20437],[-6.66784,62.20449],[-6.67008,62.20469],[-6.67215,62.20499],[-6.67497,62.20557],[-6.67646,62.20597],[-6.68146,62.2075]]]},"properties":{"id":"tunnel-C","kind":"tunnel","name":"Norðoyatunnilin","open":true,"letter":"C","lengthKm":6.2,"osmId":34419219}},{"type":"Feature","id":"tunnel-C-p0","geometry":{"type":"Point","coordinates":[-6.57404,62.21815]},"properties":{"id":"tunnel-C-p0","kind":"portal","tunnelId":"tunnel-C","bearing":188,"open":true,"name":"Norðoyatunnilin","letter":"C","lengthKm":6.2}},{"type":"Feature","id":"tunnel-C-p1","geometry":{"type":"Point","coordinates":[-6.68146,62.2075]},"properties":{"id":"tunnel-C-p1","kind":"portal","tunnelId":"tunnel-C","bearing":124,"open":true,"name":"Norðoyatunnilin","letter":"C","lengthKm":6.2}},{"type":"Feature","id":"tunnel-D","geometry":{"type":"MultiLineString","coordinates":[[[-6.79434,62.35618],[-6.783,62.34549]],[[-6.783,62.34549],[-6.77509,62.33804]],[[-6.75436,62.3173],[-6.74667,62.31217]],[[-6.77079,62.3285],[-6.76014,62.31976]],[[-6.74638,62.30869],[-6.74634,62.30834],[-6.7462,62.30811],[-6.74593,62.30787],[-6.73318,62.30004]]]},"properties":{"id":"tunnel-D","kind":"tunnel","name":"Kalsoy tunnels","open":true,"letter":"D","lengthKm":5.2,"osmId":295658239}},{"type":"Feature","id":"tunnel-D-p0","geometry":{"type":"Point","coordinates":[-6.79434,62.35618]},"properties":{"id":"tunnel-D-p0","kind":"portal","tunnelId":"tunnel-D","bearing":154,"open":true,"name":"Kalsoy tunnels","letter":"D","lengthKm":5.2}},{"type":"Feature","id":"tunnel-D-p1","geometry":{"type":"Point","coordinates":[-6.77509,62.33804]},"properties":{"id":"tunnel-D-p1","kind":"portal","tunnelId":"tunnel-D","bearing":334,"open":true,"name":"Kalsoy tunnels","letter":"D","lengthKm":5.2}},{"type":"Feature","id":"tunnel-D-p2","geometry":{"type":"Point","coordinates":[-6.75436,62.3173]},"properties":{"id":"tunnel-D-p2","kind":"portal","tunnelId":"tunnel-D","bearing":145,"open":true,"name":"Kalsoy tunnels","letter":"D","lengthKm":5.2}},{"type":"Feature","id":"tunnel-D-p3","geometry":{"type":"Point","coordinates":[-6.74667,62.31217]},"properties":{"id":"tunnel-D-p3","kind":"portal","tunnelId":"tunnel-D","bearing":325,"open":true,"name":"Kalsoy tunnels","letter":"D","lengthKm":5.2}},{"type":"Feature","id":"tunnel-D-p4","geometry":{"type":"Point","coordinates":[-6.77079,62.3285]},"properties":{"id":"tunnel-D-p4","kind":"portal","tunnelId":"tunnel-D","bearing":150,"open":true,"name":"Kalsoy tunnels","letter":"D","lengthKm":5.2}},{"type":"Feature","id":"tunnel-D-p5","geometry":{"type":"Point","coordinates":[-6.76014,62.31976]},"properties":{"id":"tunnel-D-p5","kind":"portal","tunnelId":"tunnel-D","bearing":330,"open":true,"name":"Kalsoy tunnels","letter":"D","lengthKm":5.2}},{"type":"Feature","id":"tunnel-D-p6","geometry":{"type":"Point","coordinates":[-6.74638,62.30869]},"properties":{"id":"tunnel-D-p6","kind":"portal","tunnelId":"tunnel-D","bearing":178,"open":true,"name":"Kalsoy tunnels","letter":"D","lengthKm":5.2}},{"type":"Feature","id":"tunnel-D-p7","geometry":{"type":"Point","coordinates":[-6.73318,62.30004]},"properties":{"id":"tunnel-D-p7","kind":"portal","tunnelId":"tunnel-D","bearing":323,"open":true,"name":"Kalsoy tunnels","letter":"D","lengthKm":5.2}},{"type":"Feature","id":"tunnel-E","geometry":{"type":"MultiLineString","coordinates":[[[-6.75575,62.11292],[-6.7593,62.11078],[-6.76054,62.1099],[-6.76144,62.10909],[-6.76194,62.10845],[-6.76241,62.1076],[-6.76263,62.10668],[-6.76273,62.10565],[-6.7626,62.10488],[-6.7624,62.10434],[-6.76218,62.10389],[-6.7613,62.10264],[-6.75839,62.09918]],[[-6.80501,62.05132],[-6.80504,62.05221],[-6.80493,62.05275],[-6.80471,62.05333],[-6.80428,62.05408],[-6.79457,62.06608],[-6.79341,62.06746],[-6.7922,62.06877],[-6.79061,62.07024],[-6.78873,62.07175],[-6.78693,62.07302],[-6.78004,62.07766],[-6.77673,62.07997],[-6.77358,62.08236],[-6.77068,62.08475],[-6.76787,62.08733],[-6.76496,62.09018],[-6.76347,62.09181],[-6.76088,62.09489],[-6.75833,62.09826]],[[-6.78065,62.04672],[-6.78482,62.0464],[-6.78882,62.04583],[-6.79076,62.04572],[-6.79196,62.04569],[-6.79319,62.04574],[-6.79461,62.04585],[-6.79611,62.04606],[-6.79777,62.04639],[-6.79957,62.04687],[-6.80131,62.04762],[-6.8028,62.04851],[-6.80354,62.04911],[-6.80421,62.04982],[-6.80466,62.05053],[-6.80501,62.05132]],[[-6.75701,62.0988],[-6.7466,62.09962],[-6.7436,62.09998],[-6.74242,62.10018],[-6.7401,62.10073],[-6.73786,62.10152],[-6.73654,62.10211],[-6.73542,62.10272],[-6.73475,62.10317],[-6.73425,62.10353],[-6.7336,62.10413],[-6.73294,62.10482],[-6.73238,62.10568],[-6.73218,62.10613],[-6.73191,62.10718],[-6.73188,62.10757],[-6.73192,62.10809],[-6.73205,62.10869],[-6.73235,62.1094],[-6.73299,62.11045]],[[-6.75758,62.09865],[-6.75768,62.09879]],[[-6.75768,62.09879],[-6.75796,62.09885]],[[-6.75796,62.09885],[-6.75826,62.09877]],[[-6.75826,62.09877],[-6.75831,62.09872],[-6.7583,62.09861]],[[-6.7583,62.09861],[-6.75813,62.09852],[-6.75789,62.0985]],[[-6.75789,62.0985],[-6.75769,62.09855],[-6.75758,62.09865]],[[-6.75833,62.09826],[-6.75789,62.0985]],[[-6.7583,62.09861],[-6.75833,62.09826]],[[-6.75701,62.0988],[-6.75768,62.09879]],[[-6.75758,62.09865],[-6.75701,62.0988]],[[-6.75839,62.09918],[-6.75826,62.09877]],[[-6.75796,62.09885],[-6.75839,62.09918]]]},"properties":{"id":"tunnel-E","kind":"tunnel","name":"Eysturoyartunnilin","open":false,"letter":"E","lengthKm":11.3,"osmId":387380584}},{"type":"Feature","id":"tunnel-E-p0","geometry":{"type":"Point","coordinates":[-6.75575,62.11292]},"properties":{"id":"tunnel-E-p0","kind":"portal","tunnelId":"tunnel-E","bearing":218,"open":false,"name":"Eysturoyartunnilin","letter":"E","lengthKm":11.3}},{"type":"Feature","id":"tunnel-E-p1","geometry":{"type":"Point","coordinates":[-6.78065,62.04672]},"properties":{"id":"tunnel-E-p1","kind":"portal","tunnelId":"tunnel-E","bearing":261,"open":false,"name":"Eysturoyartunnilin","letter":"E","lengthKm":11.3}},{"type":"Feature","id":"tunnel-E-p2","geometry":{"type":"Point","coordinates":[-6.73299,62.11045]},"properties":{"id":"tunnel-E-p2","kind":"portal","tunnelId":"tunnel-E","bearing":162,"open":false,"name":"Eysturoyartunnilin","letter":"E","lengthKm":11.3}},{"type":"Feature","id":"tunnel-F","geometry":{"type":"MultiLineString","coordinates":[[[-6.94049,62.09456],[-6.93976,62.09418],[-6.939,62.09367],[-6.93839,62.09322],[-6.9379,62.09278],[-6.93744,62.09226],[-6.93659,62.09096],[-6.93395,62.08522],[-6.93093,62.07933],[-6.92784,62.0703]]]},"properties":{"id":"tunnel-F","kind":"tunnel","name":"Kollafjarðartunnilin","open":true,"letter":"F","lengthKm":2.8,"osmId":27819325}},{"type":"Feature","id":"tunnel-F-p0","geometry":{"type":"Point","coordinates":[-6.94049,62.09456]},"properties":{"id":"tunnel-F-p0","kind":"portal","tunnelId":"tunnel-F","bearing":138,"open":true,"name":"Kollafjarðartunnilin","letter":"F","lengthKm":2.8}},{"type":"Feature","id":"tunnel-F-p1","geometry":{"type":"Point","coordinates":[-6.92784,62.0703]},"properties":{"id":"tunnel-F-p1","kind":"portal","tunnelId":"tunnel-F","bearing":351,"open":true,"name":"Kollafjarðartunnilin","letter":"F","lengthKm":2.8}},{"type":"Feature","id":"tunnel-G","geometry":{"type":"MultiLineString","coordinates":[[[-6.83945,61.87132],[-6.83781,61.87367],[-6.83726,61.87452],[-6.83658,61.8757],[-6.83612,61.87681],[-6.83575,61.87809],[-6.83553,61.87939],[-6.83545,61.88079],[-6.83572,61.88369],[-6.83578,61.88528],[-6.83573,61.887],[-6.8355,61.88873],[-6.83509,61.89072],[-6.83439,61.89296],[-6.83374,61.89461],[-6.83299,61.89611],[-6.83211,61.89769],[-6.83058,61.89997],[-6.82419,61.90833],[-6.8228,61.91034],[-6.82177,61.912],[-6.82043,61.91439],[-6.81966,61.91594],[-6.81897,61.91748],[-6.8167,61.92293],[-6.81608,61.92433],[-6.81513,61.9263],[-6.81438,61.92765],[-6.81317,61.92963],[-6.81178,61.93164],[-6.811,61.93265],[-6.80968,61.93429],[-6.80827,61.93591],[-6.80595,61.93833],[-6.80096,61.94294],[-6.79995,61.94401],[-6.79946,61.94462],[-6.79876,61.9457],[-6.79822,61.94696],[-6.798,61.94781],[-6.79792,61.94834],[-6.79789,61.94927],[-6.798,61.95026],[-6.79831,61.95137],[-6.79858,61.95203],[-6.79933,61.95328],[-6.8005,61.95466],[-6.80161,61.95567],[-6.80277,61.95656],[-6.80409,61.9574],[-6.80601,61.95843],[-6.80723,61.95898],[-6.80862,61.95955],[-6.80997,61.96002],[-6.81549,61.96176]]]},"properties":{"id":"tunnel-G","kind":"tunnel","name":"Sandoyartunnilin","open":false,"letter":"G","lengthKm":10.8,"osmId":722981450}},{"type":"Feature","id":"tunnel-G-p0","geometry":{"type":"Point","coordinates":[-6.83945,61.87132]},"properties":{"id":"tunnel-G-p0","kind":"portal","tunnelId":"tunnel-G","bearing":18,"open":false,"name":"Sandoyartunnilin","letter":"G","lengthKm":10.8}},{"type":"Feature","id":"tunnel-G-p1","geometry":{"type":"Point","coordinates":[-6.81549,61.96176]},"properties":{"id":"tunnel-G-p1","kind":"portal","tunnelId":"tunnel-G","bearing":126,"open":false,"name":"Sandoyartunnilin","letter":"G","lengthKm":10.8}}]}